{"type":"FeatureCollection","features":[
    {
        "type":"Feature","properties":{"name":"Super 1 Foods","addr:city":"Post Falls","addr:state":"ID","addr:postcode":83854,"addr:housenumber":805,"addr:street":"E Polston Ave","shop":"supermarket"},"geometry":{"type":"Point","coordinates":[-116.93645123101602,47.7156232755452]}
    },
    {
        "type":"Feature","properties":{"name":"WinCo Foods","addr:city":"Phoenix","addr:state":"AZ","addr:postcode":85023,"addr:housenumber":330,"addr:street":"W Bell Rd","shop":"supermarket"},"geometry":{"type":"Point","coordinates":[-112.07974408503772,33.64117119687414]}
    },
    {
        "type":"Feature","properties":{"name":"Kroger","addr:city":"Jackson","addr:state":"TN","addr:postcode":38305,"addr:housenumber":41,"addr:street":"Stonebrook Pl","shop":"supermarket"},"geometry":{"type":"Point","coordinates":[-88.85821748099958,35.68841241849296]}
    },
    {
        "type":"Feature","properties":{"name":"Kroger","addr:city":"Payallup","addr:state":"WA","addr:postcode":98371,"addr:housenumber":349,"addr:street":"Valley Ave NW","shop":"supermarket"},"geometry":{"type":"Point","coordinates":[-122.298570981757,47.211129681668154]}
    },
    {
        "type":"Feature","properties":{"name":"Kroger","addr:city":"Jackson","addr:state":"MS","addr:postcode":39211,"addr:housenumber":4910,"addr:street":"I-55 N","shop":"supermarket"},"geometry":{"type":"Point","coordinates":[-90.14786980354909,32.3639986961932]}
    },
    {
        "type":"Feature","properties":{"name":"WinCo Foods","addr:city":"Lancaster","addr:state":"CA","addr:postcode":93534,"addr:housenumber":740,"addr:street":"W K4 AVE","shop":"supermarket"},"geometry":{"type":"Point","coordinates":[-118.14532095579769,34.672032450498065]}
    },
    {
        "type":"Feature","properties":{"name":"WinCo Foods","addr:city":"Tulsa","addr:state":"OK","addr:postcode":74133,"addr:housenumber":7130,"addr:street":"S Memorial Dr E","shop":"supermarket"},"geometry":{"type":"Point","coordinates":[-95.88926249870498,36.05949758756319]}
    },
    {
        "type":"Feature","properties":{"name":"WinCo Foods","addr:city":"Midwest City","addr:state":"OK","addr:postcode":73110,"addr:housenumber":7601,"addr:street":"E Reno Ave","shop":"supermarket"},"geometry":{"type":"Point","coordinates":[-97.39142933119247,35.46520002320465]}
    },
    {
        "type":"Feature","properties":{"name":"WinCo Foods","addr:city":"Oklahoma City","addr:state":"OK","addr:postcode":73112,"addr:housenumber":3535,"addr:street":"NW 39th St","shop":"supermarket"},"geometry":{"type":"Point","coordinates":[-97.57986715679793,35.5124710319742]}
    },
    {
        "type":"Feature","properties":{"name":"WinCo Foods","addr:city":"Moore","addr:state":"OK","addr:postcode":73160,"addr:housenumber":755,"addr:street":"SW 19th St","shop":"supermarket"},"geometry":{"type":"Point","coordinates":[-97.5016087753838,35.32125699516866]}
    },
    {
        "type":"Feature","properties":{"name":"WinCo Foods","addr:city":"McKinney","addr:state":"TX","addr:postcode":75069,"addr:housenumber":1800,"addr:street":"N Graves St","shop":"supermarket"},"geometry":{"type":"Point","coordinates":[-96.62661443631966,33.21510854980207]}
    },
    {
        "type":"Feature","properties":{"name":"WinCo Foods","addr:city":"Denton","addr:state":"TX","addr:postcode":76201,"addr:housenumber":2645,"addr:street":"W University Dr","shop":"supermarket"},"geometry":{"type":"Point","coordinates":[-97.1667602,33.227518]}
    },
    {
        "type":"Feature","properties":{"name":"WinCo Foods","addr:city":"Lewisville","addr:state":"TX","addr:postcode":75067,"addr:housenumber":1288,"addr:street":"W Main St","shop":"supermarket"},"geometry":{"type":"Point","coordinates":[-97.02586491276476,33.0401373451818]}
    },
    {
        "type":"Feature","properties":{"name":"WinCo Foods","addr:city":"Carrolton","addr:state":"TX","addr:postcode":75007,"addr:housenumber":2620,"addr:street":"N Josey Ln","shop":"supermarket"},"geometry":{"type":"Point","coordinates":[-96.88924738015781,32.986606292947535]}
    },
    {
        "type":"Feature","properties":{"name":"WinCo Foods","addr:city":"Garland","addr:state":"TX","addr:postcode":75041,"addr:housenumber":1122,"addr:street":"W Centerville Rd","shop":"supermarket"},"geometry":{"type":"Point","coordinates":[-96.64400344879452,32.85516450577583]}
    },
    {
        "type":"Feature","properties":{"name":"WinCo Foods","addr:city":"Duncanville","addr:state":"TX","addr:postcode":75137,"addr:housenumber":800,"addr:street":"S Cockrell Hill Rd","shop":"supermarket"},"geometry":{"type":"Point","coordinates":[-96.88861300212668,32.645499847075904]}
    },
    {
        "type":"Feature","properties":{"name":"WinCo Foods","addr:city":"Arlington","addr:state":"TX","addr:postcode":76017,"addr:housenumber":4620,"addr:street":"S Cooper St","shop":"supermarket"},"geometry":{"type":"Point","coordinates":[-97.1393351206986, 32.67357132721084]}
    },
    {
        "type":"Feature","properties":{"name":"WinCo Foods","addr:city":"North Richland Hills","addr:state":"TX","addr:postcode":76180,"addr:housenumber":5152,"addr:street":"Rufe Snow Dr","shop":"supermarket"},"geometry":{"type":"Point","coordinates":[-97.23526386774908,32.84307500854446]}
    },
    {
        "type":"Feature","properties":{"name":"WinCo Foods","addr:city":"Fort Worth","addr:state":"TX","addr:postcode":76177,"addr:housenumber":8968,"addr:street":"Tehama Ridge Pkwy","shop":"supermarket"},"geometry":{"type":"Point","coordinates":[-97.32106126441758,32.90330728781284]}
    },
    {
        "type":"Feature","properties":{"name":"WinCo Foods","addr:city":"Fort Worth","addr:state":"TX","addr:postcode":76134,"addr:housenumber":8000,"addr:street":"Crowley Rd","shop":"supermarket"},"geometry":{"type":"Point","coordinates":[-97.34959543124171,32.63284449862518]}
    },
    {
        "type":"Feature","properties":{"name":"Super 1 Foods","addr:city":"Athol","addr:state":"ID","addr:postcode":83801,"addr:housenumber":30585,"addr:street":"N Roberts Rd","shop":"supermarket"},"geometry":{"type":"Point","coordinates":[-116.69331730420085,47.95048181464238]}
    },
    {
        "type":"Feature","properties":{"name":"Super 1 Foods","addr:city":"Bonner's Ferry","addr:state":"ID","addr:postcode":83805,"addr:housenumber":6452,"addr:street":"S Main St","shop":"supermarket"},"geometry":{"type":"Point","coordinates":[-116.33319882625655,48.67727372535044]}
    },
    {
        "type":"Feature","properties":{"name":"Super 1 Foods","addr:city":"Coeur d'Alene","addr:state":"ID","addr:postcode":83815,"addr:housenumber":305,"addr:street":"W Kathleen Ave","shop":"supermarket"},"geometry":{"type":"Point","coordinates":[-116.79078370866449,47.71620406835044]}
    },
    {
        "type":"Feature","properties":{"name":"Super 1 Foods","addr:city":"Hayden","addr:state":"ID","addr:postcode":83835,"addr:housenumber":240,"addr:street":"W Hayden Ave","shop":"supermarket"},"geometry":{"type":"Point","coordinates":[-116.78991187367122,47.75781756436869]}
    },
    {
        "type":"Feature","properties":{"name":"Super 1 Foods","addr:city":"Oldtown","addr:state":"ID","addr:postcode":83822,"addr:housenumber":86,"addr:street":"Tank Rd","shop":"supermarket"},"geometry":{"type":"Point","coordinates":[-117.02532314857957,48.18794628488271]}
    },
    {
        "type":"Feature","properties":{"name":"Super 1 Foods","addr:city":"Rathdrum","addr:state":"ID","addr:postcode":83858,"addr:housenumber":15837,"addr:street":"N Westwood Dr","shop":"supermarket"},"geometry":{"type":"Point","coordinates":[-116.87668213824031, 47.81580830033745]}
    },
    {
        "type":"Feature","properties":{"name":"Super 1 Foods","addr:city":"Sandpoint","addr:state":"ID","addr:postcode":82864,"addr:housenumber":624,"addr:street":"Larch St","shop":"supermarket"},"geometry":{"type":"Point","coordinates":[-116.55625612228664,48.28183670687317]}
    },
    {
        "type":"Feature","properties":{"name":"Super 1 Foods","addr:city":"Columbia Falls","addr:state":"MT","addr:postcode":59912,"addr:housenumber":2100,"addr:street":"9th St W","shop":"supermarket"},"geometry":{"type":"Point","coordinates":[-114.20987484668197,48.36863612225283]}
    },
    {
        "type":"Feature","properties":{"name":"Super 1 Foods","addr:city":"Great Falls","addr:state":"MT","addr:postcode":59405,"addr:housenumber":3160,"addr:street":"10th Ave S","shop":"supermarket"},"geometry":{"type":"Point","coordinates":[-111.25235496574737,47.49322047575129]}
    },
    {
        "type":"Feature","properties":{"name":"Super 1 Foods","addr:city":"Hamilton","addr:state":"MT","addr:postcode":59840,"addr:housenumber":1131,"addr:street":"N 1st St","shop":"supermarket"},"geometry":{"type":"Point","coordinates":[-114.15842119110323,46.259729691459604]}
    },
    {
        "type":"Feature","properties":{"name":"Super 1 Foods","addr:city":"Helena","addr:state":"MT","addr:postcode":59602,"addr:housenumber":3120,"addr:street":"Queen Anne St","shop":"supermarket"},"geometry":{"type":"Point","coordinates":[-112.00869589204858,46.617673619858714]}
    },
    {
        "type":"Feature","properties":{"name":"Super 1 Foods","addr:city":"Kalispell","addr:state":"MT","addr:postcode":59901,"addr:housenumber":55,"addr:street":"N 1st Ave E","shop":"supermarket"},"geometry":{"type":"Point","coordinates":[-114.3110982879632,48.20074027405614]}
    },
    {
        "type":"Feature","properties":{"name":"Super 1 Foods","addr:city":"Evergreen","addr:state":"MT","addr:postcode":59901,"addr:housenumber":1346,"addr:street":"Highway 2 E","shop":"supermarket"},"geometry":{"type":"Point","coordinates":[-114.28056159120476,48.212131711401035]}
    },
    {
        "type":"Feature","properties":{"name":"Super 1 Foods","addr:city":"Stevensville","addr:state":"MT","addr:postcode":59870,"addr:housenumber":39,"addr:street":"Stevensville Cutoff Rd W","shop":"supermarket"},"geometry":{"type":"Point","coordinates":[-114.11191440187362,46.52132860635793]}
    },
    {
        "type":"Feature","properties":{"name":"Super 1 Foods","addr:city":"Whitefish","addr:state":"MT","addr:postcode":59937,"addr:housenumber":6475,"addr:street":"US HWY 93 South","shop":"supermarket"},"geometry":{"type":"Point","coordinates":[-114.33319781428256,48.39559824237225]}
    },
    {
        "type":"Feature","properties":{"name":"Haggen","addr:city":"Woodinville","addr:state":"WA","addr:postcode":98072,"addr:housenumber":98072,"addr:street":"Garden Way NE","shop":"supermarket"},"geometry":{"type":"Point","coordinates":[-122.15735248146316,47.755752728175864]}
    },
    {
        "type":"Feature","properties":{"name":"Saar's Super Saver Foods","addr:city":"Tacoma","addr:state":"WA","addr:postcode":98444,"addr:housenumber":13322,"addr:street":"Pacific Ave S","shop":"supermarket"},"geometry":{"type":"Point","coordinates":[-122.43611216571652,47.135834613164796]}
    },
    {
        "type":"Feature","properties":{"name":"Saar's Super Saver Foods","addr:city":"Auburn","addr:state":"WA","addr:postcode":98002,"addr:housenumber":1702,"addr:street":"Auburn Way N","shop":"supermarket"},"geometry":{"type":"Point","coordinates":[-122.2203244045633,47.32430080765679]}
    },
    {
        "type":"Feature","properties":{"name":"Saar's Super Saver Foods","addr:city":"Kent","addr:state":"WA","addr:postcode":98030,"addr:housenumber":25928,"addr:street":"104th Ave SE","shop":"supermarket"},"geometry":{"type":"Point","coordinates":[-122.20061214729974,47.369356591411524]}
    },
    {
        "type":"Feature","properties":{"name":"Saar's Super Saver Foods","addr:city":"Tukwila","addr:state":"WA","addr:postcode":98168,"addr:housenumber":3725,"addr:street":"144th St","shop":"supermarket"},"geometry":{"type":"Point","coordinates":[-122.28565834758687,47.47307551857984]}
    },
    {
        "type":"Feature","properties":{"name":"Saar's Super Saver Foods","addr:city":"Renton","addr:state":"WA","addr:postcode":98056,"addr:housenumber":3208,"addr:street":"NE Sunset Blvd","shop":"supermarket"},"geometry":{"type":"Point","coordinates":[-122.17693759362528,47.50508139395912]}
    },
    {
        "type":"Feature","properties":{"name":"Saar's Super Saver Foods","addr:city":"Seattle","addr:state":"WA","addr:postcode":98146,"addr:housenumber":10616,"addr:street":"16th Ave SW","shop":"supermarket"},"geometry":{"type":"Point","coordinates":[-122.35445707252495,47.507977498853045]}
    },
    {
        "type":"Feature","properties":{"name":"Saar's Super Saver Foods","addr:city":"Bremerton","addr:state":"WA","addr:postcode":98310,"addr:housenumber":2900,"addr:street":"Wheaton Way","shop":"supermarket"},"geometry":{"type":"Point","coordinates":[-122.62803518751905,47.58966505591351]}
    },
    {
        "type":"Feature","properties":{"name":"Saar's Super Saver Foods","addr:city":"Port Angeles","addr:state":"WA","addr:postcode":98362,"addr:housenumber":114,"addr:street":"E Lauridsen Blvd","shop":"supermarket"},"geometry":{"type":"Point","coordinates":[-123.44424384598626,48.10697972786261]}
    },
    {
        "type":"Feature","properties":{"name":"Saar's Super Saver Foods","addr:city":"Oak Harbor","addr:state":"WA","addr:postcode":98277,"addr:housenumber":32199,"addr:street":"State Rte 20","shop":"supermarket"},"geometry":{"type":"Point","coordinates":[-122.65655319136934,48.29798415215799]}
    }
    ]}


