{"type":"FeatureCollection","features":[
    {
        "type":"Feature","properties":{"name":"Super 1 Foods","addr:city":"Post Falls","addr:state":"ID","addr:postcode":83854,"addr:housenumber":805,"addr:street":"E Polston Ave","shop":"supermarket"},"geometry":{"type":"Point","coordinates":[-116.93645123101602,47.7156232755452]}
    },
    {
        "type":"Feature","properties":{"name":"WinCo Foods","addr:city":"Phoenix","addr:state":"AZ","addr:postcode":85023,"addr:housenumber":330,"addr:street":"W Bell Rd","shop":"supermarket"},"geometry":{"type":"Point","coordinates":[-112.07974408503772,33.64117119687414]}
    },
    {
        "type":"Feature","properties":{"name":"Kroger","addr:city":"Jackson","addr:state":"TN","addr:postcode":38305,"addr:housenumber":41,"addr:street":"Stonebrook Pl","shop":"supermarket"},"geometry":{"type":"Point","coordinates":[-88.85821748099958,35.68841241849296]}
    },
    {
        "type":"Feature","properties":{"name":"Kroger","addr:city":"Payallup","addr:state":"WA","addr:postcode":98371,"addr:housenumber":349,"addr:street":"Valley Ave NW","shop":"supermarket"},"geometry":{"type":"Point","coordinates":[-122.298570981757,47.211129681668154]}
    },
    {
        "type":"Feature","properties":{"name":"Kroger","addr:city":"Jackson","addr:state":"MS","addr:postcode":39211,"addr:housenumber":4910,"addr:street":"I-55 N","shop":"supermarket"},"geometry":{"type":"Point","coordinates":[-90.14786980354909,32.3639986961932]}
    },
    {
        "type":"Feature","properties":{"name":"WinCo Foods","addr:city":"Lancaster","addr:state":"CA","addr:postcode":93534,"addr:housenumber":740,"addr:street":"W K4 AVE","shop":"supermarket"},"geometry":{"type":"Point","coordinates":[-118.14532095579769,34.672032450498065]}
    },
    {
        "type":"Feature","properties":{"name":"WinCo Foods","addr:city":"Tulsa","addr:state":"OK","addr:postcode":74133,"addr:housenumber":7130,"addr:street":"S Memorial Dr E","shop":"supermarket"},"geometry":{"type":"Point","coordinates":[-95.88926249870498,36.05949758756319]}
    },
    {
        "type":"Feature","properties":{"name":"WinCo Foods","addr:city":"Midwest City","addr:state":"OK","addr:postcode":73110,"addr:housenumber":7601,"addr:street":"E Reno Ave","shop":"supermarket"},"geometry":{"type":"Point","coordinates":[-97.39142933119247,35.46520002320465]}
    },
    {
        "type":"Feature","properties":{"name":"WinCo Foods","addr:city":"Oklahoma City","addr:state":"OK","addr:postcode":73112,"addr:housenumber":3535,"addr:street":"NW 39th St","shop":"supermarket"},"geometry":{"type":"Point","coordinates":[-97.57986715679793,35.5124710319742]}
    },
    {
        "type":"Feature","properties":{"name":"WinCo Foods","addr:city":"Moore","addr:state":"OK","addr:postcode":73160,"addr:housenumber":755,"addr:street":"SW 19th St","shop":"supermarket"},"geometry":{"type":"Point","coordinates":[-97.5016087753838,35.32125699516866]}
    },
    {
        "type":"Feature","properties":{"name":"WinCo Foods","addr:city":"McKinney","addr:state":"TX","addr:postcode":75069,"addr:housenumber":1800,"addr:street":"N Graves St","shop":"supermarket"},"geometry":{"type":"Point","coordinates":[-96.62661443631966,33.21510854980207]}
    },
    {
        "type":"Feature","properties":{"name":"WinCo Foods","addr:city":"Denton","addr:state":"TX","addr:postcode":76201,"addr:housenumber":2645,"addr:street":"W University Dr","shop":"supermarket"},"geometry":{"type":"Point","coordinates":[-97.1667602,33.227518]}
    },
    {
        "type":"Feature","properties":{"name":"WinCo Foods","addr:city":"Lewisville","addr:state":"TX","addr:postcode":75067,"addr:housenumber":1288,"addr:street":"W Main St","shop":"supermarket"},"geometry":{"type":"Point","coordinates":[-97.02586491276476,33.0401373451818]}
    },
    {
        "type":"Feature","properties":{"name":"WinCo Foods","addr:city":"Carrolton","addr:state":"TX","addr:postcode":75007,"addr:housenumber":2620,"addr:street":"N Josey Ln","shop":"supermarket"},"geometry":{"type":"Point","coordinates":[-96.88924738015781,32.986606292947535]}
    },
    {
        "type":"Feature","properties":{"name":"WinCo Foods","addr:city":"Garland","addr:state":"TX","addr:postcode":75041,"addr:housenumber":1122,"addr:street":"W Centerville Rd","shop":"supermarket"},"geometry":{"type":"Point","coordinates":[-96.64400344879452,32.85516450577583]}
    },
    {
        "type":"Feature","properties":{"name":"WinCo Foods","addr:city":"Duncanville","addr:state":"TX","addr:postcode":75137,"addr:housenumber":800,"addr:street":"S Cockrell Hill Rd","shop":"supermarket"},"geometry":{"type":"Point","coordinates":[-96.88861300212668,32.645499847075904]}
    },
    {
        "type":"Feature","properties":{"name":"WinCo Foods","addr:city":"Arlington","addr:state":"TX","addr:postcode":76017,"addr:housenumber":4620,"addr:street":"S Cooper St","shop":"supermarket"},"geometry":{"type":"Point","coordinates":[-97.1393351206986, 32.67357132721084]}
    },
    {
        "type":"Feature","properties":{"name":"WinCo Foods","addr:city":"North Richland Hills","addr:state":"TX","addr:postcode":76180,"addr:housenumber":5152,"addr:street":"Rufe Snow Dr","shop":"supermarket"},"geometry":{"type":"Point","coordinates":[-97.23526386774908,32.84307500854446]}
    },
    {
        "type":"Feature","properties":{"name":"WinCo Foods","addr:city":"Fort Worth","addr:state":"TX","addr:postcode":76177,"addr:housenumber":8968,"addr:street":"Tehama Ridge Pkwy","shop":"supermarket"},"geometry":{"type":"Point","coordinates":[-97.32106126441758,32.90330728781284]}
    },
    {
        "type":"Feature","properties":{"name":"WinCo Foods","addr:city":"Fort Worth","addr:state":"TX","addr:postcode":76134,"addr:housenumber":8000,"addr:street":"Crowley Rd","shop":"supermarket"},"geometry":{"type":"Point","coordinates":[-97.34959543124171,32.63284449862518]}
    },
    {
        "type":"Feature","properties":{"name":"Super 1 Foods","addr:city":"Athol","addr:state":"ID","addr:postcode":83801,"addr:housenumber":30585,"addr:street":"N Roberts Rd","shop":"supermarket"},"geometry":{"type":"Point","coordinates":[-116.69331730420085,47.95048181464238]}
    },
    {
        "type":"Feature","properties":{"name":"Super 1 Foods","addr:city":"Bonner's Ferry","addr:state":"ID","addr:postcode":83805,"addr:housenumber":6452,"addr:street":"S Main St","shop":"supermarket"},"geometry":{"type":"Point","coordinates":[-116.33319882625655,48.67727372535044]}
    },
    {
        "type":"Feature","properties":{"name":"Super 1 Foods","addr:city":"Coeur d'Alene","addr:state":"ID","addr:postcode":83815,"addr:housenumber":305,"addr:street":"W Kathleen Ave","shop":"supermarket"},"geometry":{"type":"Point","coordinates":[-116.79078370866449,47.71620406835044]}
    },
    {
        "type":"Feature","properties":{"name":"Super 1 Foods","addr:city":"Hayden","addr:state":"ID","addr:postcode":83835,"addr:housenumber":240,"addr:street":"W Hayden Ave","shop":"supermarket"},"geometry":{"type":"Point","coordinates":[-116.78991187367122,47.75781756436869]}
    },
    {
        "type":"Feature","properties":{"name":"Super 1 Foods","addr:city":"Oldtown","addr:state":"ID","addr:postcode":83822,"addr:housenumber":86,"addr:street":"Tank Rd","shop":"supermarket"},"geometry":{"type":"Point","coordinates":[-117.02532314857957,48.18794628488271]}
    },
    {
        "type":"Feature","properties":{"name":"Super 1 Foods","addr:city":"Rathdrum","addr:state":"ID","addr:postcode":83858,"addr:housenumber":15837,"addr:street":"N Westwood Dr","shop":"supermarket"},"geometry":{"type":"Point","coordinates":[-116.87668213824031, 47.81580830033745]}
    },
    {
        "type":"Feature","properties":{"name":"Super 1 Foods","addr:city":"Sandpoint","addr:state":"ID","addr:postcode":82864,"addr:housenumber":624,"addr:street":"Larch St","shop":"supermarket"},"geometry":{"type":"Point","coordinates":[-116.55625612228664,48.28183670687317]}
    },
    {
        "type":"Feature","properties":{"name":"Super 1 Foods","addr:city":"Columbia Falls","addr:state":"MT","addr:postcode":59912,"addr:housenumber":2100,"addr:street":"9th St W","shop":"supermarket"},"geometry":{"type":"Point","coordinates":[-114.20987484668197,48.36863612225283]}
    },
    {
        "type":"Feature","properties":{"name":"Super 1 Foods","addr:city":"Great Falls","addr:state":"MT","addr:postcode":59405,"addr:housenumber":3160,"addr:street":"10th Ave S","shop":"supermarket"},"geometry":{"type":"Point","coordinates":[-111.25235496574737,47.49322047575129]}
    },
    {
        "type":"Feature","properties":{"name":"Super 1 Foods","addr:city":"Hamilton","addr:state":"MT","addr:postcode":59840,"addr:housenumber":1131,"addr:street":"N 1st St","shop":"supermarket"},"geometry":{"type":"Point","coordinates":[-114.15842119110323,46.259729691459604]}
    },
    {
        "type":"Feature","properties":{"name":"Super 1 Foods","addr:city":"Helena","addr:state":"MT","addr:postcode":59602,"addr:housenumber":3120,"addr:street":"Queen Anne St","shop":"supermarket"},"geometry":{"type":"Point","coordinates":[-112.00869589204858,46.617673619858714]}
    },
    {
        "type":"Feature","properties":{"name":"Super 1 Foods","addr:city":"Kalispell","addr:state":"MT","addr:postcode":59901,"addr:housenumber":55,"addr:street":"N 1st Ave E","shop":"supermarket"},"geometry":{"type":"Point","coordinates":[-114.3110982879632,48.20074027405614]}
    },
    {
        "type":"Feature","properties":{"name":"Super 1 Foods","addr:city":"Evergreen","addr:state":"MT","addr:postcode":59901,"addr:housenumber":1346,"addr:street":"Highway 2 E","shop":"supermarket"},"geometry":{"type":"Point","coordinates":[-114.28056159120476,48.212131711401035]}
    },
    {
        "type":"Feature","properties":{"name":"Super 1 Foods","addr:city":"Stevensville","addr:state":"MT","addr:postcode":59870,"addr:housenumber":39,"addr:street":"Stevensville Cutoff Rd W","shop":"supermarket"},"geometry":{"type":"Point","coordinates":[-114.11191440187362,46.52132860635793]}
    },
    {
        "type":"Feature","properties":{"name":"Super 1 Foods","addr:city":"Whitefish","addr:state":"MT","addr:postcode":59937,"addr:housenumber":6475,"addr:street":"US HWY 93 South","shop":"supermarket"},"geometry":{"type":"Point","coordinates":[-114.33319781428256,48.39559824237225]}
    },
    {
        "type":"Feature","properties":{"name":"Haggen","addr:city":"Woodinville","addr:state":"WA","addr:postcode":98072,"addr:housenumber":98072,"addr:street":"Garden Way NE","shop":"supermarket"},"geometry":{"type":"Point","coordinates":[-122.15735248146316,47.755752728175864]}
    },
    {
        "type":"Feature","properties":{"name":"Saar's Super Saver Foods","addr:city":"Tacoma","addr:state":"WA","addr:postcode":98444,"addr:housenumber":13322,"addr:street":"Pacific Ave S","shop":"supermarket"},"geometry":{"type":"Point","coordinates":[-122.43611216571652,47.135834613164796]}
    },
    {
        "type":"Feature","properties":{"name":"Saar's Super Saver Foods","addr:city":"Auburn","addr:state":"WA","addr:postcode":98002,"addr:housenumber":1702,"addr:street":"Auburn Way N","shop":"supermarket"},"geometry":{"type":"Point","coordinates":[-122.2203244045633,47.32430080765679]}
    },
    {
        "type":"Feature","properties":{"name":"Saar's Super Saver Foods","addr:city":"Kent","addr:state":"WA","addr:postcode":98030,"addr:housenumber":25928,"addr:street":"104th Ave SE","shop":"supermarket"},"geometry":{"type":"Point","coordinates":[-122.20061214729974,47.369356591411524]}
    },
    {
        "type":"Feature","properties":{"name":"Saar's Super Saver Foods","addr:city":"Tukwila","addr:state":"WA","addr:postcode":98168,"addr:housenumber":3725,"addr:street":"144th St","shop":"supermarket"},"geometry":{"type":"Point","coordinates":[-122.28565834758687,47.47307551857984]}
    },
    {
        "type":"Feature","properties":{"name":"Saar's Super Saver Foods","addr:city":"Renton","addr:state":"WA","addr:postcode":98056,"addr:housenumber":3208,"addr:street":"NE Sunset Blvd","shop":"supermarket"},"geometry":{"type":"Point","coordinates":[-122.17693759362528,47.50508139395912]}
    },
    {
        "type":"Feature","properties":{"name":"Saar's Super Saver Foods","addr:city":"Seattle","addr:state":"WA","addr:postcode":98146,"addr:housenumber":10616,"addr:street":"16th Ave SW","shop":"supermarket"},"geometry":{"type":"Point","coordinates":[-122.35445707252495,47.507977498853045]}
    },
    {
        "type":"Feature","properties":{"name":"Saar's Super Saver Foods","addr:city":"Bremerton","addr:state":"WA","addr:postcode":98310,"addr:housenumber":2900,"addr:street":"Wheaton Way","shop":"supermarket"},"geometry":{"type":"Point","coordinates":[-122.62803518751905,47.58966505591351]}
    },
    {
        "type":"Feature","properties":{"name":"Saar's Super Saver Foods","addr:city":"Port Angeles","addr:state":"WA","addr:postcode":98362,"addr:housenumber":114,"addr:street":"E Lauridsen Blvd","shop":"supermarket"},"geometry":{"type":"Point","coordinates":[-123.44424384598626,48.10697972786261]}
    },
    {
        "type":"Feature","properties":{"name":"Saar's Super Saver Foods","addr:city":"Oak Harbor","addr:state":"WA","addr:postcode":98277,"addr:housenumber":32199,"addr:street":"State Rte 20","shop":"supermarket"},"geometry":{"type":"Point","coordinates":[-122.65655319136934,48.29798415215799]}
    },
    {
        "type":"Feature","properties":{"name":"WinCo Foods","addr:city":"Marysville","addr:state":"WA","addr:postcode":98271,"addr:housenumber":3947,"addr:street":"116th St NE","shop":"supermarket"},"geometry":{"type":"Point","coordinates":[-122.17733587144146,48.10091635818299]}
    },
    {
        "type":"Feature","properties":{"name":"WinCo Foods","addr:city":"Everett","addr:state":"WA","addr:postcode":98208,"addr:housenumber":9900,"addr:street":"19th Ave SE","shop":"supermarket"},"geometry":{"type":"Point","coordinates":[-122.20861929864573,47.90838369716122]}
    },
    {
        "type":"Feature","properties":{"name":"WinCo Foods","addr:city":"Edmonds","addr:state":"WA","addr:postcode":98026,"addr:housenumber":21900,"addr:street":"Hwy 99","shop":"supermarket"},"geometry":{"type":"Point","coordinates":[-122.33331164604779,47.80072136775716]}
    },
    {
        "type":"Feature","properties":{"name":"WinCo Foods","addr:city":"Bremerton","addr:state":"WA","addr:postcode":98312,"addr:housenumber":4969,"addr:street":"Kitsap Way","shop":"supermarket"},"geometry":{"type":"Point","coordinates":[-122.68196125437733,47.568133313650186]}
    },
    {
        "type":"Feature","properties":{"name":"WinCo Foods","addr:city":"Kent","addr:state":"WA","addr:postcode":98031,"addr:housenumber":21100,"addr:street":"91st Pl S","shop":"supermarket"},"geometry":{"type":"Point","coordinates":[-122.21897624699626,47.41434028135674]}
    },
    {
        "type":"Feature","properties":{"name":"WinCo Foods","addr:city":"Federal Way","addr:state":"WA","addr:postcode":98003,"addr:housenumber":160,"addr:street":"SW Campus Dr","shop":"supermarket"},"geometry":{"type":"Point","coordinates":[-122.33618293956279,47.29252516203333]}
    },
    {
        "type":"Feature","properties":{"name":"WinCo Foods","addr:city":"Sumner","addr:state":"WA","addr:postcode":98390,"addr:housenumber":6621,"addr:street":"166th Ave E","shop":"supermarket"},"geometry":{"type":"Point","coordinates":[-122.20549615645868,47.19572859006327]}
    },
    {
        "type":"Feature","properties":{"name":"WinCo Foods","addr:city":"Tacoma","addr:state":"WA","addr:postcode":98408,"addr:housenumber":1913,"addr:street":"S 72nd St","shop":"supermarket"},"geometry":{"type":"Point","coordinates":[-122.45993212962944,47.19520863870922]}
    },
    {
        "type":"Feature","properties":{"name":"WinCo Foods","addr:city":"Puyallup","addr:state":"WA","addr:postcode":98375,"addr:housenumber":9518,"addr:street":"176th St E","shop":"supermarket"},"geometry":{"type":"Point","coordinates":[-122.30083213491902,47.09572326466198]}
    },
    {
        "type":"Feature","properties":{"name":"WinCo Foods","addr:city":"Olympia","addr:state":"WA","addr:postcode":98516,"addr:housenumber":7540,"addr:street":"Martin Way E","shop":"supermarket"},"geometry":{"type":"Point","coordinates":[-122.77973840704713,47.05502400837424]}
    },
    {
        "type":"Feature","properties":{"name":"WinCo Foods","addr:city":"Moses Lake","addr:state":"WA","addr:postcode":98837,"addr:housenumber":960,"addr:street":"N Stratford Rd","shop":"supermarket"},"geometry":{"type":"Point","coordinates":[-119.28183976197784,47.14139804924732]}
    },
    {
        "type":"Feature","properties":{"name":"WinCo Foods","addr:city":"Wenatchee","addr:state":"WA","addr:postcode":98801,"addr:housenumber":1340,"addr:street":"N Wenatchee Ave","shop":"supermarket"},"geometry":{"type":"Point","coordinates":[-120.32820276730997,47.44176097362457]}
    },
    {
        "type":"Feature","properties":{"name":"WinCo Foods","addr:city":"Union Gap","addr:state":"WA","addr:postcode":98903,"addr:housenumber":2425,"addr:street":"Longfibre Rd","shop":"supermarket"},"geometry":{"type":"Point","coordinates":[-120.49537350956011,46.56084038696493]}
    },
    {
        "type":"Feature","properties":{"name":"WinCo Foods","addr:city":"Richland","addr:state":"WA","addr:postcode":99352,"addr:housenumber":101,"addr:street":"Columbia Point Dr","shop":"supermarket"},"geometry":{"type":"Point","coordinates":[-119.26461622037196,46.26292060266859]}
    },
    {
        "type":"Feature","properties":{"name":"WinCo Foods","addr:city":"Kennewick","addr:state":"WA","addr:postcode":99336,"addr:housenumber":4602,"addr:street":"W Clearwater Ave","shop":"supermarket"},"geometry":{"type":"Point","coordinates":[-119.18242146494865,46.2136088500416]}
    },
    {
        "type":"Feature","properties":{"name":"WinCo Foods","addr:city":"Spokane","addr:state":"WA","addr:postcode":99218,"addr:housenumber":9257,"addr:street":"N Nevada St","shop":"supermarket"},"geometry":{"type":"Point","coordinates":[-117.39917302929783,47.7411304836594]}
    },
    {
        "type":"Feature","properties":{"name":"WinCo Foods","addr:city":"Spokane","addr:state":"WA","addr:postcode":99206,"addr:housenumber":9718,"addr:street":"E Sprague Ave","shop":"supermarket"},"geometry":{"type":"Point","coordinates":[-117.27350533986309,47.65584408155491]}
    },
    {
        "type":"Feature","properties":{"name":"WinCo Foods","addr:city":"Coeur d'Alene","addr:state":"ID","addr:postcode":83814,"addr:housenumber":1485,"addr:street":"W Appleway Ave","shop":"supermarket"},"geometry":{"type":"Point","coordinates":[-116.80556417678719,47.70384178656075]}
    },
    {
        "type":"Feature","properties":{"name":"WinCo Foods","addr:city":"Bellingham","addr:state":"ID","addr:postcode":98226,"addr:housenumber":300,"addr:street":"E Bellis Fair Pkwy","shop":"supermarket"},"geometry":{"type":"Point","coordinates":[-122.4815052128493,48.78697358697308]}
    },
    {
        "type":"Feature","properties":{"name":"WinCo Foods","addr:city":"Moscow","addr:state":"ID","addr:postcode":83843,"addr:housenumber":1700,"addr:street":"W Pullman Rd","shop":"supermarket"},"geometry":{"type":"Point","coordinates":[-117.02542958475895,46.73439283324951]}
    },
    {
        "type":"Feature","properties":{"name":"WinCo Foods","addr:city":"Lewiston","addr:state":"ID","addr:postcode":83501,"addr:housenumber":2001,"addr:street":"17th St","shop":"supermarket"},"geometry":{"type":"Point","coordinates":[-117.00701515414835,46.3996061184217]}
    },
    {
        "type":"Feature","properties":{"name":"WinCo Foods","addr:city":"Idaho Falls","addr:state":"ID","addr:postcode":83401,"addr:housenumber":333,"addr:street":"N Woodruff Ave","shop":"supermarket"},"geometry":{"type":"Point","coordinates":[-112.00219261586145,43.49877291133128]}
    },
    {
        "type":"Feature","properties":{"name":"WinCo Foods","addr:city":"Pocatello","addr:state":"ID","addr:postcode":83201,"addr:housenumber":1030,"addr:street":"Yellowstone Ave","shop":"supermarket"},"geometry":{"type":"Point","coordinates":[-112.4490472006073,42.89387924257976]}
    },
    {
        "type":"Feature","properties":{"name":"WinCo Foods","addr:city":"Twin Falls","addr:state":"ID","addr:postcode":83301,"addr:housenumber":1569,"addr:street":"Blue Lakes Blvd N","shop":"supermarket"},"geometry":{"type":"Point","coordinates":[-114.46351597458859,42.589782336083495]}
    },
    {
        "type":"Feature","properties":{"name":"WinCo Foods","addr:city":"Longview","addr:state":"WA","addr:postcode":98632,"addr:housenumber":120,"addr:street":"Triangle Shopping Center","shop":"supermarket"},"geometry":{"type":"Point","coordinates":[-122.9338721639629,46.14318248966417]}
    },
    {
        "type":"Feature","properties":{"name":"WinCo Foods","addr:city":"Vancouver","addr:state":"WA","addr:postcode":98661,"addr:housenumber":2101,"addr:street":"Northeast Andresen Road","shop":"supermarket"},"geometry":{"type":"Point","coordinates":[-122.59705059225689,45.63894991195796]}
    },
    {
        "type":"Feature","properties":{"name":"WinCo Foods","addr:city":"Vancouver","addr:state":"WA","addr:postcode":98684,"addr:housenumber":905,"addr:street":"NE 136th Ave","shop":"supermarket"},"geometry":{"type":"Point","coordinates":[-122.53175027515417,45.62916452648603]}
    },
    {
        "type":"Feature","properties":{"name":"WinCo Foods","addr:city":"Vancouver","addr:state":"WA","addr:postcode":98665,"addr:housenumber":9700,"addr:street":"NE Hwy 99","shop":"supermarket"},"geometry":{"type":"Point","coordinates":[-122.6601927234552,45.691691461302305]}
    },
    {
        "type":"Feature","properties":{"name":"WinCo Foods","addr:city":"Vancouver","addr:state":"WA","addr:postcode":98662,"addr:housenumber":11310,"addr:street":"NE 119th St","shop":"supermarket"},"geometry":{"type":"Point","coordinates":[-122.55655909352255,45.70887720990261]}
    },
    {
        "type":"Feature","properties":{"name":"WinCo Foods","addr:city":"Eagle","addr:state":"ID","addr:postcode":83616,"addr:housenumber":3032,"addr:street":"East State Street","shop":"supermarket"},"geometry":{"type":"Point","coordinates":[-116.31484767898216,43.68578027154658]}
    },
    {
        "type":"Feature","properties":{"name":"WinCo Foods","addr:city":"Meridian","addr:state":"ID","addr:postcode":83646,"addr:housenumber":1407,"addr:street":"W Chinden Blvd","shop":"supermarket"},"geometry":{"type":"Point","coordinates":[-116.41110530050699,43.660440769976326]}
    },
    {
        "type":"Feature","properties":{"name":"WinCo Foods","addr:city":"Boise","addr:state":"ID","addr:postcode":83704,"addr:housenumber":8200,"addr:street":"W Fairview Ave","shop":"supermarket"},"geometry":{"type":"Point","coordinates":[-116.28542756821724,43.62068371819534]}
    },
    {
        "type":"Feature","properties":{"name":"WinCo Foods","addr:city":"Boise","addr:state":"ID","addr:postcode":83702,"addr:housenumber":110,"addr:street":"E Myrtle St","shop":"supermarket"},"geometry":{"type":"Point","coordinates":[-116.1980048695644,43.60925028532493]}
    },
    {
        "type":"Feature","properties":{"name":"WinCo Foods","addr:city":"Meridian","addr:state":"ID","addr:postcode":83642,"addr:housenumber":1050,"addr:street":"S Progress Ave","shop":"supermarket"},"geometry":{"type":"Point","coordinates":[-116.38962213201856,43.59613041478197]}
    },
    {
        "type":"Feature","properties":{"name":"WinCo Foods","addr:city":"Nampa","addr:state":"ID","addr:postcode":83687,"addr:housenumber":1175,"addr:street":"N. Happy Valley Road","shop":"supermarket"},"geometry":{"type":"Point","coordinates":[-116.51559812280868,43.5947825190416]}
    },
    {
        "type":"Feature","properties":{"name":"WinCo Foods","addr:city":"Nampa","addr:state":"ID","addr:postcode":83651,"addr:housenumber":2020,"addr:street":"Caldwell Blvd","shop":"supermarket"},"geometry":{"type":"Point","coordinates":[-116.60335129290905,43.608241414782064]}
    },
    {
        "type":"Feature","properties":{"name":"Safeway","addr:city":"Fort Bragg","addr:state":"CA","addr:postcode":95437,"addr:housenumber":660,"addr:street":"660 S Main St","shop":"supermarket"},"geometry":{"type":"Point","coordinates":[-123.80583998076659,39.43351514470488]}
    },
    {
        "type":"Feature","properties":{"name":"Safeway","addr:city":"Pollock Pines","addr:state":"CA","addr:postcode":95726,"addr:housenumber":6498,"addr:street":"Pony Express Trail","shop":"supermarket"},"geometry":{"type":"Point","coordinates":[-120.57687260412924,38.762346654458256]}
    },
    {
        "type":"Feature","properties":{"name":"Safeway","addr:city":"Sebastopol","addr:state":"CA","addr:postcode":95472,"addr:housenumber":406,"addr:street":"N Main St","shop":"supermarket"},"geometry":{"type":"Point","coordinates":[-122.82705138741994,38.4044881930121]}
    },
    {
        "type":"Feature","properties":{"name":"Safeway","addr:city":"Crescent City","addr:state":"CA","addr:postcode":95531,"addr:housenumber":475,"addr:street":"M St","shop":"supermarket"},"geometry":{"type":"Point","coordinates":[-124.19331773744557,41.7560631324479]}
    },
    {
        "type":"Feature","properties":{"name":"Safeway","addr:city":"South Lake Tahoe","addr:state":"CA","addr:postcode":96150,"addr:housenumber":1020,"addr:street":"Johnson Ln","shop":"supermarket"},"geometry":{"type":"Point","coordinates":[-119.96732539451213,38.944190354944176]}
    },
    {
        "type":"Feature","properties":{"name":"Safeway","addr:city":"Truckee","addr:state":"CA","addr:postcode":96161,"addr:housenumber":11290,"addr:street":"Donner Pass Rd","shop":"supermarket"},"geometry":{"type":"Point","coordinates":[-120.20651548179129,39.32726719022221]}
    },
    {
        "type":"Feature","properties":{"name":"Safeway","addr:city":"Kings Beach","addr:state":"CA","addr:postcode":96143,"addr:housenumber":7815,"addr:street":"N Lake Blvd","shop":"supermarket"},"geometry":{"type":"Point","coordinates":[-120.03376107299765,39.23913770034028]}
    },
    {
        "type":"Feature","properties":{"name":"Safeway","addr:city":"Lincoln","addr:state":"CA","addr:postcode":95648,"addr:housenumber":67,"addr:street":"Lincoln Blvd","shop":"supermarket"},"geometry":{"type":"Point","coordinates":[-121.29420830227482,38.87800580718743]}
    },
    {
        "type":"Feature","properties":{"name":"Safeway","addr:city":"Roseville","addr:state":"CA","addr:postcode":95678,"addr:housenumber":1080,"addr:street":"Pleasant Grove Blvd","shop":"supermarket"},"geometry":{"type":"Point","coordinates":[-121.29132801260293,38.77739280524327]}
    },
    {
        "type":"Feature","properties":{"name":"Safeway","addr:city":"Roseville","addr:state":"CA","addr:postcode":95661,"addr:housenumber":8640,"addr:street":"Sierra College Blvd","shop":"supermarket"},"geometry":{"type":"Point","coordinates":[-121.2285686105801,38.74190793444749]}
    },
    {
        "type":"Feature","properties":{"name":"Safeway","addr:city":"Petaluma","addr:state":"CA","addr:postcode":94954,"addr:housenumber":389,"addr:street":"S Mcdowell Blvd","shop":"supermarket"},"geometry":{"type":"Point","coordinates":[-122.62185597267147,38.24889679615408]}
    },
    {
        "type":"Feature","properties":{"name":"Safeway","addr:city":"Napa","addr:state":"CA","addr:postcode":94558,"addr:housenumber":3375,"addr:street":"Jefferson St","shop":"supermarket"},"geometry":{"type":"Point","coordinates":[-122.30183206103904,38.32117900843894]}
    },
    {
        "type":"Feature","properties":{"name":"Safeway","addr:city":"Novato","addr:state":"CA","addr:postcode":94947,"addr:housenumber":3375,"addr:street":"Diablo Ave","shop":"supermarket"},"geometry":{"type":"Point","coordinates":[-122.57148617800044,38.10376304935826]}
    },
    {
        "type":"Feature","properties":{"name":"Safeway","addr:city":"Clayton","addr:state":"CA","addr:postcode":94517,"addr:housenumber":5431,"addr:street":"Clayton Rd","shop":"supermarket"},"geometry":{"type":"Point","coordinates":[-121.9535299199407,37.95367050821095]}
    },
    {
        "type":"Feature","properties":{"name":"Safeway","addr:city":"Lafayette","addr:state":"CA","addr:postcode":94549,"addr:housenumber":3540,"addr:street":"Mt Diablo Blvd","shop":"supermarket"},"geometry":{"type":"Point","coordinates":[-122.11944988067737,37.89283401052221]}
    },
    {
        "type":"Feature","properties":{"name":"Safeway","addr:city":"Albany","addr:state":"CA","addr:postcode":94707,"addr:housenumber":1500,"addr:street":"Solano Ave","shop":"supermarket"},"geometry":{"type":"Point","coordinates":[-122.28690531853914,37.89026710932716]}
    },
    {
        "type":"Feature","properties":{"name":"Safeway","addr:city":"San Francisco","addr:state":"CA","addr:postcode":94112,"addr:housenumber":4950,"addr:street":"Mission St","shop":"supermarket"},"geometry":{"type":"Point","coordinates":[-122.43875379625334,37.719853756860694]}
    },
    {
        "type":"Feature","properties":{"name":"Safeway","addr:city":"Alameda","addr:state":"CA","addr:postcode":94501,"addr:housenumber":2227,"addr:street":"S Shore Ctr","shop":"supermarket"},"geometry":{"type":"Point","coordinates":[-122.25083147804968,37.757252837548435]}
    },
    {
        "type":"Feature","properties":{"name":"Safeway","addr:city":"Alamo","addr:state":"CA","addr:postcode":94507,"addr:housenumber":200,"addr:street":"Alamo Plaza","shop":"supermarket"},"geometry":{"type":"Point","coordinates":[-122.03480005663313,37.850870224119205]}
    },
    {
        "type":"Feature","properties":{"name":"Safeway","addr:city":"Discovery Bay","addr:state":"CA","addr:postcode":94505,"addr:housenumber":14840,"addr:street":"Hwy 4","shop":"supermarket"},"geometry":{"type":"Point","coordinates":[-121.6215903922193,37.89057060456828]}
    },
    {
        "type":"Feature","properties":{"name":"Safeway","addr:city":"San Ramon","addr:state":"CA","addr:postcode":94583,"addr:housenumber":2505,"addr:street":"San Ramon Valley Blvd","shop":"supermarket"},"geometry":{"type":"Point","coordinates":[-121.97670700923516,37.77317693870212]}
    },
    {
        "type":"Feature","properties":{"name":"Safeway","addr:city":"Livermore","addr:state":"CA","addr:postcode":94551,"addr:housenumber":4495,"addr:street":"First St","shop":"supermarket"},"geometry":{"type":"Point","coordinates":[-121.74293473566796,37.69559818330561]}
    },
    {
        "type":"Feature","properties":{"name":"Safeway","addr:city":"Pleasanton","addr:state":"CA","addr:postcode":94566,"addr:housenumber":1701,"addr:street":"Santa Rita Rd","shop":"supermarket"},"geometry":{"type":"Point","coordinates":[-121.87450648719181,37.675141353097644]}
    },
    {
        "type":"Feature","properties":{"name":"Safeway","addr:city":"Tracy","addr:state":"CA","addr:postcode":95376,"addr:housenumber":1801,"addr:street":"W 11th St","shop":"supermarket"},"geometry":{"type":"Point","coordinates":[-121.4497557250673,37.740185058222586]}
    },
    {
        "type":"Feature","properties":{"name":"Safeway","addr:city":"Turlock","addr:state":"CA","addr:postcode":95380,"addr:housenumber":3051,"addr:street":"Countryside Dr","shop":"supermarket"},"geometry":{"type":"Point","coordinates":[-120.8835127431663,37.52096245507203]}
    },
    {
        "type":"Feature","properties":{"name":"Safeway","addr:city":"San Mateo","addr:state":"CA","addr:postcode":94402,"addr:housenumber":1655,"addr:street":"El Camino Real","shop":"supermarket"},"geometry":{"type":"Point","coordinates":[-122.31367662034002,37.553212624582656]}
    },
    {
        "type":"Feature","properties":{"name":"Safeway","addr:city":"Half Moon Bay","addr:state":"CA","addr:postcode":94019,"addr:housenumber":70,"addr:street":"Cabrillo Hwy","shop":"supermarket"},"geometry":{"type":"Point","coordinates":[-122.43613458413193,37.469268130893326]}
    },
    {
        "type":"Feature","properties":{"name":"Safeway","addr:city":"Redwood City","addr:state":"CA","addr:postcode":94063,"addr:housenumber":1071,"addr:street":"El Camino Real","shop":"supermarket"},"geometry":{"type":"Point","coordinates":[-122.23045236001884,37.484632313089634]}
    },
    {
        "type":"Feature","properties":{"name":"Safeway","addr:city":"Menlo Park","addr:state":"CA","addr:postcode":94025,"addr:housenumber":525,"addr:street":"El Camino Real","shop":"supermarket"},"geometry":{"type":"Point","coordinates":[-122.17915519344734,37.45054091713214]}
    },
    {
        "type":"Feature","properties":{"name":"Safeway","addr:city":"Mountain View","addr:state":"CA","addr:postcode":94040,"addr:housenumber":645,"addr:street":"San Antonio Rd","shop":"supermarket"},"geometry":{"type":"Point","coordinates":[-122.1118488445262,37.40181099899278]}
    },
    {
        "type":"Feature","properties":{"name":"Safeway","addr:city":"Los Gatos","addr:state":"CA","addr:postcode":95032,"addr:housenumber":15549,"addr:street":"Union Ave","shop":"supermarket"},"geometry":{"type":"Point","coordinates":[-121.93259133290567,37.24244125245407]}
    },
    {
        "type":"Feature","properties":{"name":"Safeway","addr:city":"Sunnyvale","addr:state":"CA","addr:postcode":94087,"addr:housenumber":150,"addr:street":"E El Camino Real","shop":"supermarket"},"geometry":{"type":"Point","coordinates":[-122.03071218833492,37.36466003097583]}
    },
    {
        "type":"Feature","properties":{"name":"Safeway","addr:city":"San Jose","addr:state":"CA","addr:postcode":95125,"addr:housenumber":1530,"addr:street":"Hamilton Ave","shop":"supermarket"},"geometry":{"type":"Point","coordinates":[-121.91103638734498,37.293224602160855]}
    },
    {
        "type":"Feature","properties":{"name":"Safeway","addr:city":"San Jose","addr:state":"CA","addr:postcode":95120,"addr:housenumber":6477,"addr:street":"Almaden Expwy","shop":"supermarket"},"geometry":{"type":"Point","coordinates":[-121.86150350941283,37.21952984182888]}
    },
    {
        "type":"Feature","properties":{"name":"Safeway","addr:city":"Los Gatos","addr:state":"CA","addr:postcode":95030,"addr:housenumber":470,"addr:street":"N Santa Cruz Ave","shop":"supermarket"},"geometry":{"type":"Point","coordinates":[-121.97908836747288,37.23146191287479]}
    },
    {
        "type":"Feature","properties":{"name":"Safeway","addr:city":"Scotts Valley","addr:state":"CA","addr:postcode":95066,"addr:housenumber":253,"addr:street":"Mt Hermon Rd","shop":"supermarket"},"geometry":{"type":"Point","coordinates":[-122.0310497884736,37.046230213076186]}
    },
    {
        "type":"Feature","properties":{"name":"Safeway","addr:city":"Aptos","addr:state":"CA","addr:postcode":95003,"addr:housenumber":16,"addr:street":"Rancho Del Mar","shop":"supermarket"},"geometry":{"type":"Point","coordinates":[-121.90832697460237,36.97870140460212]}
    },
    {
        "type":"Feature","properties":{"name":"Safeway","addr:city":"Carmel","addr:state":"CA","addr:postcode":93923,"addr:housenumber":5,"addr:street":"Crossroads Blvd","shop":"supermarket"},"geometry":{"type":"Point","coordinates":[-121.91084593431168,36.53652838452779]}
    },
    {
        "type":"Feature","properties":{"name":"WinCo Foods","addr:city":"San Marcos","addr:state":"CA","addr:postcode":92078,"addr:housenumber":555,"addr:street":"Grand Avenue","shop":"supermarket"},"geometry":{"type":"Point","coordinates":[-117.1765807548009,33.135300620320415]}
    },
    {
        "type":"Feature","properties":{"name":"WinCo Foods","addr:city":"Indio","addr:state":"CA","addr:postcode":92203,"addr:housenumber":42600,"addr:street":"Jackson St","shop":"supermarket"},"geometry":{"type":"Point","coordinates":[-116.21311247856315,33.73956017491318]}
    },
    {
        "type":"Feature","properties":{"name":"WinCo Foods","addr:city":"Temecula","addr:state":"CA","addr:postcode":92591,"addr:housenumber":40435,"addr:street":"Winchester Rd","shop":"supermarket"},"geometry":{"type":"Point","coordinates":[-117.15355166241841,33.53087270400984]}
    },
    {
        "type":"Feature","properties":{"name":"WinCo Foods","addr:city":"Hemet","addr:state":"CA","addr:postcode":92545,"addr:housenumber":4602,"addr:street":"W Florida Ave","shop":"supermarket"},"geometry":{"type":"Point","coordinates":[-117.02105486756491,33.74538699961115]}
    },
    {
        "type":"Feature","properties":{"name":"WinCo Foods","addr:city":"Perris","addr:state":"CA","addr:postcode":92571,"addr:housenumber":3150,"addr:street":"N Case Rd","shop":"supermarket"},"geometry":{"type":"Point","coordinates":[-117.19255890668178,33.74570458747208]}
    },
    {
        "type":"Feature","properties":{"name":"WinCo Foods","addr:city":"Moreno Valley","addr:state":"CA","addr:postcode":92553,"addr:housenumber":12880,"addr:street":"Day St","shop":"supermarket"},"geometry":{"type":"Point","coordinates":[-117.27519041675079,33.93370483005639]}
    },
    {
        "type":"Feature","properties":{"name":"WinCo Foods","addr:city":"Norco","addr:state":"CA","addr:postcode":92860,"addr:housenumber":1100,"addr:street":"Hamner Ave","shop":"supermarket"},"geometry":{"type":"Point","coordinates":[-117.56467202093648,33.89935754262002]}
    },
    {
        "type":"Feature","properties":{"name":"WinCo Foods","addr:city":"Fontana","addr:state":"CA","addr:postcode":92335,"addr:housenumber":14338,"addr:street":"Foothill Blvd","shop":"supermarket"},"geometry":{"type":"Point","coordinates":[-117.49195842582132,34.107400747422346]}
    },
    {
        "type":"Feature","properties":{"name":"WinCo Foods","addr:city":"Pomona","addr:state":"CA","addr:postcode":91766,"addr:housenumber":90,"addr:street":"Rio Rancho","shop":"supermarket"},"geometry":{"type":"Point","coordinates":[-117.76150676612757,34.02630757542287]}
    },
    {
        "type":"Feature","properties":{"name":"WinCo Foods","addr:city":"Lakewood","addr:state":"CA","addr:postcode":90805,"addr:housenumber":3400,"addr:street":"E South St","shop":"supermarket"},"geometry":{"type":"Point","coordinates":[-118.15216874996035,33.85881933410571]}
    },
    {
        "type":"Feature","properties":{"name":"WinCo Foods","addr:city":"Apple Valley","addr:state":"CA","addr:postcode":92308,"addr:housenumber":19047,"addr:street":"Bear Valley Rd","shop":"supermarket"},"geometry":{"type":"Point","coordinates":[-117.24779746349215,34.46831040656222]}
    },
    {
        "type":"Feature","properties":{"name":"WinCo Foods","addr:city":"Victorville","addr:state":"CA","addr:postcode":92393,"addr:housenumber":15350,"addr:street":"Roy Rodgers Dr","shop":"supermarket"},"geometry":{"type":"Point","coordinates":[-117.32903134263195,34.52291850899119]}
    },
    {
        "type":"Feature","properties":{"name":"WinCo Foods","addr:city":"Ventura","addr:state":"CA","addr:postcode":93003,"addr:housenumber":4750,"addr:street":"Telephone Rd","shop":"supermarket"},"geometry":{"type":"Point","coordinates":[-119.23239240583406,34.259505212036444]}
    },
    {
        "type":"Feature","properties":{"name":"WinCo Foods","addr:city":"Bakersfield","addr:state":"CA","addr:postcode":93308,"addr:housenumber":6801,"addr:street":"Panama Ln","shop":"supermarket"},"geometry":{"type":"Point","coordinates":[-119.07771423119806,35.29497532466415]}
    },
    {
        "type":"Feature","properties":{"name":"WinCo Foods","addr:city":"Bakersfield","addr:state":"CA","addr:postcode":93308,"addr:housenumber":4200,"addr:street":"Coffee Rd","shop":"supermarket"},"geometry":{"type":"Point","coordinates":[-119.09052851313959,35.39832479733631]}
    },
    {
        "type":"Feature","properties":{"name":"WinCo Foods","addr:city":"Caldwell","addr:state":"CA","addr:postcode":93277,"addr:housenumber":3939,"addr:street":"W Caldwell Ave","shop":"supermarket"},"geometry":{"type":"Point","coordinates":[-119.33407265631239,36.29620765585352]}
    },
    {
        "type":"Feature","properties":{"name":"WinCo Foods","addr:city":"Clovis","addr:state":"CA","addr:postcode":93612,"addr:housenumber":396,"addr:street":"W Ashlan Ave","shop":"supermarket"},"geometry":{"type":"Point","coordinates":[-119.71743321643817,36.79185524867252]}
    },
    {
        "type":"Feature","properties":{"name":"WinCo Foods","addr:city":"Fresno","addr:state":"CA","addr:postcode":93722,"addr:housenumber":4488,"addr:street":"W Shaw Ave","shop":"supermarket"},"geometry":{"type":"Point","coordinates":[-119.87304231481053,36.81097730448422]}
    },
    {
        "type":"Feature","properties":{"name":"WinCo Foods","addr:city":"Modesto","addr:state":"CA","addr:postcode":95350,"addr:housenumber":2200,"addr:street":"Plaza Pkwy","shop":"supermarket"},"geometry":{"type":"Point","coordinates":[-121.03388167302614,37.67083197498469]}
    },
    {
        "type":"Feature","properties":{"name":"WinCo Foods","addr:city":"Tracy","addr:state":"CA","addr:postcode":95304,"addr:housenumber":2850,"addr:street":"Pavilion Pkwy","shop":"supermarket"},"geometry":{"type":"Point","coordinates":[-121.46800340154687,37.75900425654153]}
    },
    {
        "type":"Feature","properties":{"name":"WinCo Foods","addr:city":"Brentwood","addr:state":"CA","addr:postcode":94513,"addr:housenumber":6700,"addr:street":"Lone Tree Way","shop":"supermarket"},"geometry":{"type":"Point","coordinates":[-121.72943418802893,37.96440243445876]}
    },
    {
        "type":"Feature","properties":{"name":"WinCo Foods","addr:city":"Oceanside","addr:state":"CA","addr:postcode":92054,"addr:housenumber":2245,"addr:street":"S El Camino Real","shop":"supermarket"},"geometry":{"type":"Point","coordinates":[-117.3299039582684,33.18557863338084]}
    },
    {
        "type":"Feature","properties":{"name":"WinCo Foods","addr:city":"Vacaville","addr:state":"CA","addr:postcode":95687,"addr:housenumber":855,"addr:street":"Davis St","shop":"supermarket"},"geometry":{"type":"Point","coordinates":[-121.98467790052145,38.34659389935837]}
    },
    {
        "type":"Feature","properties":{"name":"WinCo Foods","addr:city":"Reno","addr:state":"NV","addr:postcode":89512,"addr:housenumber":2855,"addr:street":"Northtowne Ln","shop":"supermarket"},"geometry":{"type":"Point","coordinates":[-119.78407315076706,39.553497055293555]}
    },
    {
        "type":"Feature","properties":{"name":"WinCo Foods","addr:city":"Elk Grove","addr:state":"CA","addr:postcode":95758,"addr:housenumber":8142,"addr:street":"Sheldon Rd","shop":"supermarket"},"geometry":{"type":"Point","coordinates":[-121.40676737135416,38.43622529048503]}
    },
    {
        "type":"Feature","properties":{"name":"WinCo Foods","addr:city":"Folsom","addr:state":"CA","addr:postcode":95630,"addr:housenumber":200,"addr:street":"Blue Ravine Rd","shop":"supermarket"},"geometry":{"type":"Point","coordinates":[-121.17505106738307,38.65557023177094]}
    },
    {
        "type":"Feature","properties":{"name":"WinCo Foods","addr:city":"Orangevale","addr:state":"CA","addr:postcode":95662,"addr:housenumber":8701,"addr:street":"Greenback Ln","shop":"supermarket"},"geometry":{"type":"Point","coordinates":[-121.23371843923933,38.67982891273336]}
    },
    {
        "type":"Feature","properties":{"name":"WinCo Foods","addr:city":"Antelope","addr:state":"CA","addr:postcode":95843,"addr:housenumber":4137,"addr:street":"Elverta Rd","shop":"supermarket"},"geometry":{"type":"Point","coordinates":[-121.36722814121522,38.71559293952136]}
    },
    {
        "type":"Feature","properties":{"name":"WinCo Foods","addr:city":"Roseville","addr:state":"CA","addr:postcode":95678,"addr:housenumber":10151,"addr:street":"Fairway Dr","shop":"supermarket"},"geometry":{"type":"Point","coordinates":[-121.2785440238194,38.78512939411994]}
    },
    {
        "type":"Feature","properties":{"name":"WinCo Foods","addr:city":"Yuba City","addr:state":"CA","addr:postcode":95993,"addr:housenumber":1350,"addr:street":"Franklin Rd","shop":"supermarket"},"geometry":{"type":"Point","coordinates":[-121.63635424481332,39.125635555474105]}
    },
    {
        "type":"Feature","properties":{"name":"WinCo Foods","addr:city":"Chico","addr:state":"CA","addr:postcode":95928,"addr:housenumber":2060,"addr:street":"E 20th St","shop":"supermarket"},"geometry":{"type":"Point","coordinates":[-121.80019664868364,39.72892702326301]}
    },
    {
        "type":"Feature","properties":{"name":"WinCo Foods","addr:city":"Redding","addr:state":"CA","addr:postcode":96003,"addr:housenumber":1050,"addr:street":"Old Alturas Rd","shop":"supermarket"},"geometry":{"type":"Point","coordinates":[-122.34408072962908,40.58785201877044]}
    },
    {
        "type":"Feature","properties":{"name":"WinCo Foods","addr:city":"Eureka","addr:state":"CA","addr:postcode":95501,"addr:housenumber":636,"addr:street":"W Harris St","shop":"supermarket"},"geometry":{"type":"Point","coordinates":[-124.17823532147887,40.78170330176306]}
    },
    {
        "type":"Feature","properties":{"name":"Cub","addr:city":"Duluth","addr:state":"MN","addr:postcode":55811,"addr:housenumber":615,"addr:street":"W Central Entrance","shop":"supermarket"},"geometry":{"type":"Point","coordinates":[-92.14653548475033,46.80337902062718]}
    },
    {
        "type":"Feature","properties":{"name":"Giant Food","addr:city":"McLean","addr:state":"VA","addr:postcode":22101,"addr:housenumber":1454,"addr:street":"Chain Bridge Rd","shop":"supermarket"},"geometry":{"type":"Point","coordinates":[-77.18015232046632,38.93278889182781]}
    },
    {
        "type":"Feature","properties":{"name":"Kroger","addr:city":"Olive Branch","addr:state":"MS","addr:postcode":38654,"addr:housenumber":7427,"addr:street":"Goodman Rd","shop":"supermarket"},"geometry":{"type":"Point","coordinates":[-89.8575614852238,34.9601758513813]}
    },
    {
        "type":"Feature","properties":{"name":"Marsh's Sun Fresh Market","addr:city":"Kansas City","addr:state":"MO","addr:postcode":64111,"addr:housenumber":4001,"addr:street":"Mill St","shop":"supermarket"},"geometry":{"type":"Point","coordinates":[-94.59496526513958,39.05439536660372]}
    },
    {
        "type":"Feature","properties":{"name":"Woodman's","addr:city":"Rockford","addr:state":"IL","addr:postcode":61114,"addr:housenumber":3155,"addr:street":"McFarland Rd","shop":"supermarket"},"geometry":{"type":"Point","coordinates":[-88.97474231183271,42.30729606242453]}
    },
    {
        "type":"Feature","properties":{"name":"Cub","addr:city":"Freeport","addr:state":"IL","addr:postcode":61032,"addr:housenumber":1512,"addr:street":"S West Ave","shop":"supermarket"},"geometry":{"type":"Point","coordinates":[-89.63293745364673,42.28338121942586]}
    },
    {
        "type":"Feature","properties":{"name":"Woodman's","addr:city":"Carpentersville","addr:state":"IL","addr:postcode":60110,"addr:housenumber":2100,"addr:street":"Randall Rd","shop":"supermarket"},"geometry":{"type":"Point","coordinates":[-88.33840566250886,42.120198519138576]}
    },
    {
        "type":"Feature","properties":{"name":"Woodman's","addr:city":"Lakemoor","addr:state":"IL","addr:postcode":60051,"addr:housenumber":27555,"addr:street":"IL-120","shop":"supermarket"},"geometry":{"type":"Point","coordinates":[-88.16782817209666,42.32051292450855]}
    },
    {
        "type":"Feature","properties":{"name":"Woodman's","addr:city":"Buffalo Grove","addr:state":"IL","addr:postcode":60089,"addr:housenumber":1550,"addr:street":"Deerfield Pkwy","shop":"supermarket"},"geometry":{"type":"Point","coordinates":[-87.9234558067762,42.16889309854849]}
    },
    {
        "type":"Feature","properties":{"name":"Save A Lot","addr:city":"Chicago","addr:state":"IL","addr:postcode":60649,"addr:housenumber":7240,"addr:street":"S Stoney Island Ave","shop":"supermarket"},"geometry":{"type":"Point","coordinates":[-87.58708488711495,41.7630026345498]}
    },
    {
        "type":"Feature","properties":{"name":"WinCo Foods","addr:city":"Glendale","addr:state":"AZ","addr:postcode":85308,"addr:housenumber":5850,"addr:street":"W Bell Rd","shop":"supermarket"},"geometry":{"type":"Point","coordinates":[-112.18311868227805,33.6408746226612]}
    },
    {
        "type":"Feature","properties":{"name":"WinCo Foods","addr:city":"Surprize","addr:state":"AZ","addr:postcode":85374,"addr:housenumber":16925,"addr:street":"W Bell Rd","shop":"supermarket"},"geometry":{"type":"Point","coordinates":[-112.42296065014101,33.63750119842029]}
    },
    {
        "type":"Feature","properties":{"name":"WinCo Foods","addr:city":"Mesa","addr:state":"AZ","addr:postcode":85206,"addr:housenumber":1235,"addr:street":"S Power Rd","shop":"supermarket"},"geometry":{"type":"Point","coordinates":[-111.68293535479668,33.39270727067388]}
    },
    {
        "type":"Feature","properties":{"name":"WinCo Foods","addr:city":"Gilbert","addr:state":"AZ","addr:postcode":85233,"addr:housenumber":1363,"addr:street":"N Arizona Ave","shop":"supermarket"},"geometry":{"type":"Point","coordinates":[-111.84033181641614,33.374177327590886]}
    },
    {
        "type":"Feature","properties":{"name":"WinCo Foods","addr:city":"Gilbert","addr:state":"AZ","addr:postcode":85295,"addr:housenumber":1967,"addr:street":"E Pecos Rd","shop":"supermarket"},"geometry":{"type":"Point","coordinates":[-111.74866527354098,33.293824202467846]}
    },
    {
        "type":"Feature","properties":{"name":"WinCo Foods","addr:city":"Chandler","addr:state":"AZ","addr:postcode":85286,"addr:housenumber":222,"addr:street":"W Willis Rd","shop":"supermarket"},"geometry":{"type":"Point","coordinates":[-111.84525711952172,33.28546437605697]}
    },
    {
        "type":"Feature","properties":{"name":"Crest Foods","addr:city":"Oklahoma City","addr:state":"OK","addr:postcode":73170,"addr:housenumber":10601,"addr:street":"S May Ave","shop":"supermarket"},"geometry":{"type":"Point","coordinates":[-97.56803298156403,35.362215302115644]}
    },
    {
        "type":"Feature","properties":{"name":"Crest Foods","addr:city":"Oklahoma City","addr:state":"OK","addr:postcode":73162,"addr:housenumber":11120,"addr:street":"N. Rockwell","shop":"supermarket"},"geometry":{"type":"Point","coordinates":[-97.63751936781593,35.58276152062329]}
    },
    {
        "type":"Feature","properties":{"name":"Crest Foods","addr:city":"Oklahoma City","addr:state":"OK","addr:postcode":73110,"addr:housenumber":7212,"addr:street":"E Reno Ave","shop":"supermarket"},"geometry":{"type":"Point","coordinates":[-97.40240737728334,35.46356584212585]}
    },
    {
        "type":"Feature","properties":{"name":"Crest Foods","addr:city":"Norman","addr:state":"OK","addr:postcode":73069,"addr:housenumber":2550,"addr:street":"Mt Williams Dr","shop":"supermarket"},"geometry":{"type":"Point","coordinates":[-97.47910216072275,35.23758979610523]}
    },
    {
        "type":"Feature","properties":{"name":"Crest Foods","addr:city":"Midwest City","addr:state":"OK","addr:postcode":73130,"addr:housenumber":249,"addr:street":"N Douglas Blvd","shop":"supermarket"},"geometry":{"type":"Point","coordinates":[-97.37254753607668,35.46675506493789]}
    },
    {
        "type":"Feature","properties":{"name":"Crest Foods","addr:city":"Edmond","addr:state":"OK","addr:postcode":73013,"addr:housenumber":2200,"addr:street":"W 15th St #124","shop":"supermarket"},"geometry":{"type":"Point","coordinates":[-97.51274223516201,35.63645889771706]}
    },
    {
        "type":"Feature","properties":{"name":"Crest Foods","addr:city":"Moore","addr:state":"OK","addr:postcode":73160,"addr:housenumber":1315,"addr:street":"N Eastern Ave","shop":"supermarket"},"geometry":{"type":"Point","coordinates":[-97.47869878025995,35.34993062370521]}
    },
    {
        "type":"Feature","properties":{"name":"Crest Foods","addr:city":"Oklahoma City","addr:state":"OK","addr:postcode":73127,"addr:housenumber":4503,"addr:street":"NW 23rd St","shop":"supermarket"},"geometry":{"type":"Point","coordinates":[-97.60178858497788,35.49477509559537]}
    },
    {
        "type":"Feature","properties":{"name":"Crest Foods","addr:city":"Oklahoma City","addr:state":"OK","addr:postcode":73099,"addr:housenumber":715,"addr:street":"North Czech Hall Rd","shop":"supermarket"},"geometry":{"type":"Point","coordinates":[-97.74591875370571,35.47374991380272]}
    },
    {
        "type":"Feature","properties":{"name":"WinCo Foods","addr:city":"Las Vegas","addr:state":"NV","addr:postcode":89128,"addr:housenumber":7501,"addr:street":"W Washington Ave","shop":"supermarket"},"geometry":{"type":"Point","coordinates":[-115.25650408187613,36.18038487599899]}
    },
    {
        "type":"Feature","properties":{"name":"WinCo Foods","addr:city":"Las Vegas","addr:state":"NV","addr:postcode":89130,"addr:housenumber":6101,"addr:street":"N Decatur Blvd","shop":"supermarket"},"geometry":{"type":"Point","coordinates":[-115.20836225070141,36.269773730041315]}
    },
    {
        "type":"Feature","properties":{"name":"WinCo Foods","addr:city":"Henderson","addr:state":"NV","addr:postcode":89704,"addr:housenumber":80,"addr:street":"N Stephanie St","shop":"supermarket"},"geometry":{"type":"Point","coordinates":[-115.0441335846269,36.03388356004737]}
    },
    {
        "type":"Feature","properties":{"name":"WinCo Foods","addr:city":"Reno","addr:state":"NV","addr:postcode":89511,"addr:housenumber":9750,"addr:street":"S Virginia St","shop":"supermarket"},"geometry":{"type":"Point","coordinates":[-119.76829609780123,39.44179469549007]}
    },
    {
        "type":"Feature","properties":{"name":"WinCo Foods","addr:city":"Reno","addr:state":"NV","addr:postcode":89512,"addr:housenumber":2855,"addr:street":"Northtowne Ln","shop":"supermarket"},"geometry":{"type":"Point","coordinates":[-119.7840757939195,39.553497684234074]}
    },
    {
        "type":"Feature","properties":{"name":"WinCo Foods","addr:city":"Medford","addr:state":"OR","addr:postcode":97501,"addr:housenumber":251,"addr:street":"E Barnett Rd","shop":"supermarket"},"geometry":{"type":"Point","coordinates":[-122.86124368165125,42.31822313026782]}
    },
    {
        "type":"Feature","properties":{"name":"WinCo Foods","addr:city":"Grants Pass","addr:state":"OR","addr:postcode":97526,"addr:housenumber":231,"addr:street":"NE Terry Ln","shop":"supermarket"},"geometry":{"type":"Point","coordinates":[-123.3010347816641,42.437188435115154]}
    },
    {
        "type":"Feature","properties":{"name":"WinCo Foods","addr:city":"Bend","addr:state":"OR","addr:postcode":97701,"addr:housenumber":60,"addr:street":"NE Bend River Mall Dr","shop":"supermarket"},"geometry":{"type":"Point","coordinates":[-121.30456685007907,44.085498292125166]}
    },
    {
        "type":"Feature","properties":{"name":"WinCo Foods","addr:city":"Springfield","addr:state":"OR","addr:postcode":97477,"addr:housenumber":1920,"addr:street":"Olympic St","shop":"supermarket"},"geometry":{"type":"Point","coordinates":[-122.99587771094785,44.06090032869587]}
    },
    {
        "type":"Feature","properties":{"name":"WinCo Foods","addr:city":"Eugene","addr:state":"OR","addr:postcode":97402,"addr:housenumber":4275,"addr:street":"Barger Dr","shop":"supermarket"},"geometry":{"type":"Point","coordinates":[-123.16939798049866,44.086561767505934]}
    },
    {
        "type":"Feature","properties":{"name":"WinCo Foods","addr:city":"Corvallis","addr:state":"OR","addr:postcode":97330,"addr:housenumber":2335,"addr:street":"NW Kings Blvd","shop":"supermarket"},"geometry":{"type":"Point","coordinates":[-123.2743401111982,44.590593798505196]}
    },
    {
        "type":"Feature","properties":{"name":"WinCo Foods","addr:city":"Albany","addr:state":"OR","addr:postcode":97321,"addr:housenumber":3100,"addr:street":"Pacific Blvd SE","shop":"supermarket"},"geometry":{"type":"Point","coordinates":[-123.06649598228063,44.63994792963327]}
    },
    {
        "type":"Feature","properties":{"name":"WinCo Foods","addr:city":"Independence","addr:state":"OR","addr:postcode":97351,"addr:housenumber":1737,"addr:street":"Monmouth Street","shop":"supermarket"},"geometry":{"type":"Point","coordinates":[-123.2146535689681,44.85019274906407]}
    },
    {
        "type":"Feature","properties":{"name":"WinCo Foods","addr:city":"Salem","addr:state":"OR","addr:postcode":97302,"addr:housenumber":4575,"addr:street":"Commercial St SE","shop":"supermarket"},"geometry":{"type":"Point","coordinates":[-123.03493860411785,44.887987845702455]}
    },
    {
        "type":"Feature","properties":{"name":"WinCo Foods","addr:city":"Salem","addr:state":"OR","addr:postcode":97317,"addr:housenumber":1240,"addr:street":"Lancaster Dr SE","shop":"supermarket"},"geometry":{"type":"Point","coordinates":[-122.97628288003247,44.913941996787436]}
    },
    {
        "type":"Feature","properties":{"name":"WinCo Foods","addr:city":"Keizer","addr:state":"OR","addr:postcode":97303,"addr:housenumber":5450,"addr:street":"River Rd N","shop":"supermarket"},"geometry":{"type":"Point","coordinates":[-123.02530615063849,45.00313516956425]}
    },
    {
        "type":"Feature","properties":{"name":"WinCo Foods","addr:city":"McMinnville","addr:state":"OR","addr:postcode":97128,"addr:housenumber":2585,"addr:street":"NE Hwy 99 W","shop":"supermarket"},"geometry":{"type":"Point","coordinates":[-123.17218300568439,45.23062384350249]}
    },
    {
        "type":"Feature","properties":{"name":"WinCo Foods","addr:city":"Oregon City","addr:state":"OR","addr:postcode":97045,"addr:housenumber":19701,"addr:street":"Highway 213","shop":"supermarket"},"geometry":{"type":"Point","coordinates":[-122.58035186521282,45.3210590195617]}
    },
    {
        "type":"Feature","properties":{"name":"WinCo Foods","addr:city":"Happy Valley","addr:state":"OR","addr:postcode":97086,"addr:housenumber":11250,"addr:street":"SE 82nd Ave","shop":"supermarket"},"geometry":{"type":"Point","coordinates":[-122.57771185503931,45.443686692570736]}
    },
    {
        "type":"Feature","properties":{"name":"WinCo Foods","addr:city":"Portland","addr:state":"OR","addr:postcode":97206,"addr:housenumber":7979,"addr:street":"SE Powell Blvd","shop":"supermarket"},"geometry":{"type":"Point","coordinates":[-122.58098229539988,45.498426346656345]}
    },
    {
        "type":"Feature","properties":{"name":"WinCo Foods","addr:city":"Portland","addr:state":"OR","addr:postcode":97220,"addr:housenumber":1222,"addr:street":"NE 102nd Ave","shop":"supermarket"},"geometry":{"type":"Point","coordinates":[-122.55639768303864,45.53114331874098]}
    },
    {
        "type":"Feature","properties":{"name":"WinCo Foods","addr:city":"Portland","addr:state":"OR","addr:postcode":97230,"addr:housenumber":1950,"addr:street":"NE 122nd Ave","shop":"supermarket"},"geometry":{"type":"Point","coordinates":[-122.55639795008221,45.53114292533363]}
    },
    {
        "type":"Feature","properties":{"name":"WinCo Foods","addr:city":"Gresham","addr:state":"OR","addr:postcode":97030,"addr:housenumber":2511,"addr:street":"SE 1st St","shop":"supermarket"},"geometry":{"type":"Point","coordinates":[-122.4076092241269,45.49851059347092]}
    },
    {
        "type":"Feature","properties":{"name":"WinCo Foods","addr:city":"Tigard","addr:state":"OR","addr:postcode":97223,"addr:housenumber":7501,"addr:street":"SW Dartmouth St","shop":"supermarket"},"geometry":{"type":"Point","coordinates":[-122.75360772728389,45.43495568986465]}
    },
    {
        "type":"Feature","properties":{"name":"WinCo Foods","addr:city":"Beaverton","addr:state":"OR","addr:postcode":97005,"addr:housenumber":7501,"addr:street":"SW Cedar Hills Blvd","shop":"supermarket"},"geometry":{"type":"Point","coordinates":[-122.80970699783707,45.49800449325346]}
    },
    {
        "type":"Feature","properties":{"name":"WinCo Foods","addr:city":"Hillsboro","addr:state":"OR","addr:postcode":97124,"addr:housenumber":7330,"addr:street":"NE Butler St","shop":"supermarket"},"geometry":{"type":"Point","coordinates":[-122.90288399610783,45.53555200058432]}
    },
    {
        "type":"Feature","properties":{"name":"WinCo Foods","addr:city":"Hillsboro","addr:state":"OR","addr:postcode":97123,"addr:housenumber":1500,"addr:street":"SW Oak St","shop":"supermarket"},"geometry":{"type":"Point","coordinates":[-123.00636234572708,45.51843714224041]}
    },
    {
        "type":"Feature","properties":{"name":"WinCo Foods","addr:city":"Ontario","addr:state":"OR","addr:postcode":97914,"addr:housenumber":1630,"addr:street":"E Idaho Ave","shop":"supermarket"},"geometry":{"type":"Point","coordinates":[-116.94074019347146,44.02407884104047]}
    },
    {
        "type":"Feature","properties":{"name":"WinCo Foods","addr:city":"Logan","addr:state":"UT","addr:postcode":84341,"addr:housenumber":1341,"addr:street":"Main St","shop":"supermarket"},"geometry":{"type":"Point","coordinates":[-111.83699302963406,41.75684361622441]}
    },
    {
        "type":"Feature","properties":{"name":"WinCo Foods","addr:city":"Ogden","addr:state":"UT","addr:postcode":84404,"addr:housenumber":205,"addr:street":"W 12th St","shop":"supermarket"},"geometry":{"type":"Point","coordinates":[-111.98150293691545,41.24219102043205]}
    },
    {
        "type":"Feature","properties":{"name":"WinCo Foods","addr:city":"Roy","addr:state":"UT","addr:postcode":84067,"addr:housenumber":6060,"addr:street":"S 3500 W","shop":"supermarket"},"geometry":{"type":"Point","coordinates":[-112.06220097222378,41.15323190757877]}
    },
    {
        "type":"Feature","properties":{"name":"WinCo Foods","addr:city":"Layton","addr:state":"UT","addr:postcode":84041,"addr:housenumber":200,"addr:street":"S Fort Ln","shop":"supermarket"},"geometry":{"type":"Point","coordinates":[-111.95941641415443,41.05800553776138]}
    },
    {
        "type":"Feature","properties":{"name":"WinCo Foods","addr:city":"South Salt Lake","addr:state":"UT","addr:postcode":84115,"addr:housenumber":2193,"addr:street":"S Main St","shop":"supermarket"},"geometry":{"type":"Point","coordinates":[-111.89027159190073,40.72390297282834]}
    },
    {
        "type":"Feature","properties":{"name":"WinCo Foods","addr:city":"West Valley City","addr:state":"UT","addr:postcode":94120,"addr:housenumber":2572,"addr:street":"S 5600 W","shop":"supermarket"},"geometry":{"type":"Point","coordinates":[-112.02634989008352,40.71377437862704]}
    },
    {
        "type":"Feature","properties":{"name":"WinCo Foods","addr:city":"Midvale","addr:state":"UT","addr:postcode":84047,"addr:housenumber":7020,"addr:street":"S 700 W","shop":"supermarket"},"geometry":{"type":"Point","coordinates":[-111.91128363897482,40.6240030817991]}
    },
    {
        "type":"Feature","properties":{"name":"WinCo Foods","addr:city":"Herriman","addr:state":"UT","addr:postcode":84096,"addr:housenumber":11969,"addr:street":"S Carlsbad Way","shop":"supermarket"},"geometry":{"type":"Point","coordinates":[-112.01415534583569,40.53362260265633]}
    },
    {
        "type":"Feature","properties":{"name":"WinCo Foods","addr:city":"Orem","addr:state":"UT","addr:postcode":84057,"addr:housenumber":895,"addr:street":"N 980 W","shop":"supermarket"},"geometry":{"type":"Point","coordinates":[-111.72062256354441,40.31426396792798]}
    },
    {
        "type":"Feature","properties":{"name":"WinCo Foods","addr:city":"Missoula","addr:state":"MT","addr:postcode":59801,"addr:housenumber":2510,"addr:street":"S Reserve St","shop":"supermarket"},"geometry":{"type":"Point","coordinates":[-114.03808358260757,46.847969019571835]}
    },
    {
        "type":"Feature","properties":{"name":"WinCo Foods","addr:city":"Helena","addr:state":"MT","addr:postcode":59601,"addr:housenumber":2995,"addr:street":"N Sanders St","shop":"supermarket"},"geometry":{"type":"Point","coordinates":[-112.0126535764719,46.61443145997435]}
    },
    {
        "type":"Feature","properties":{"name":"WinCo Foods","addr:city":"Bozeman","addr:state":"MT","addr:postcode":59718,"addr:housenumber":2913,"addr:street":"Max Ave","shop":"supermarket"},"geometry":{"type":"Point","coordinates":[-111.0712189229489,45.70830409752819]}
    },
    {
        "type":"Feature","properties":{"name":"WinCo Foods","addr:city":"Billings","addr:state":"MT","addr:postcode":59102,"addr:housenumber":2424,"addr:street":"Central Ave","shop":"supermarket"},"geometry":{"type":"Point","coordinates":[-108.57803628500794,45.76828014637423]}
    },
    {
        "type":"Feature","properties":{"name":"Vons","addr:city":"Burbank","addr:state":"CA","addr:postcode":91505,"addr:housenumber":301,"addr:street":"N Pass Ave","shop":"supermarket"},"geometry":{"type":"Point","coordinates":[-118.34655389938982,34.15487628627967]}
    },
    {
        "type":"Feature","properties":{"name":"Vons","addr:city":"Mammoth Lakes","addr:state":"CA","addr:postcode":93546,"addr:housenumber":481,"addr:street":"Old Mammoth Rd","shop":"supermarket"},"geometry":{"type":"Point","coordinates":[-118.96527252291412,37.638824125566195]}
    },
    {
        "type":"Feature","properties":{"name":"Safeway","addr:city":"Zephyr Cove","addr:state":"NV","addr:postcode":89448,"addr:housenumber":212,"addr:street":"Elks Point Rd","shop":"supermarket"},"geometry":{"type":"Point","coordinates":[-119.94373391610132,38.98616230508306]}
    },
    {
        "type":"Feature","properties":{"name":"Safeway","addr:city":"Reno","addr:state":"NV","addr:postcode":89521,"addr:housenumber":1031,"addr:street":"Steamboat Pkwy","shop":"supermarket"},"geometry":{"type":"Point","coordinates":[-119.73856268727864,39.425159067592624]}
    },
    {
        "type":"Feature","properties":{"name":"Safeway","addr:city":"Reno","addr:state":"NV","addr:postcode":89523,"addr:housenumber":5150,"addr:street":"Mae Anne Ave","shop":"supermarket"},"geometry":{"type":"Point","coordinates":[-119.86709219419097,39.53084157094489]}
    },
    {
        "type":"Feature","properties":{"name":"Safeway","addr:city":"Fallon","addr:state":"NV","addr:postcode":89406,"addr:housenumber":890,"addr:street":"W Williams Ave","shop":"supermarket"},"geometry":{"type":"Point","coordinates":[-118.78710787017395,39.47716538967453]}
    },
    {
        "type":"Feature","properties":{"name":"Safeway","addr:city":"Sparks","addr:state":"NV","addr:postcode":89434,"addr:housenumber":2808,"addr:street":"Vista Blvd","shop":"supermarket"},"geometry":{"type":"Point","coordinates":[-119.70345234170443,39.555547331166636]}
    },
    {
        "type":"Feature","properties":{"name":"Save A Lot","addr:city":"Tampa","addr:state":"FL","addr:postcode":33617,"addr:housenumber":5014,"addr:street":"E Busch Blvd","shop":"supermarket"},"geometry":{"type":"Point","coordinates":[-82.4012011633862,28.033993603979116]}
    },
    {
        "type":"Feature","properties":{"name":"Save A Lot","addr:city":"Lakeland","addr:state":"FL","addr:postcode":33815,"addr:housenumber":2021,"addr:street":"George Jenkins Blvd","shop":"supermarket"},"geometry":{"type":"Point","coordinates":[-81.98895409982357,28.042908253803695]}
    },
    {
        "type":"Feature","properties":{"name":"Safeway","addr:city":"Alexandria","addr:state":"VA","addr:postcode":22302,"addr:housenumber":3526,"addr:street":"King St","shop":"supermarket"},"geometry":{"type":"Point","coordinates":[-77.08961806786836,38.82782209059392]}
    },
    {
        "type":"Feature","properties":{"name":"Safeway","addr:city":"Alexandria","addr:state":"VA","addr:postcode":22307,"addr:housenumber":1624,"addr:street":"Belle View Blvd","shop":"supermarket"},"geometry":{"type":"Point","coordinates":[-77.06078079912795,38.776451017181124]}
    },
    {
        "type":"Feature","properties":{"name":"Safeway","addr:city":"Fairfax","addr:state":"VA","addr:postcode":22301,"addr:housenumber":3043,"addr:street":"Nutley St","shop":"supermarket"},"geometry":{"type":"Point","coordinates":[-77.260944322946,38.87136731862098]}
    },
    {
        "type":"Feature","properties":{"name":"Safeway","addr:city":"Washington","addr:state":"DC","addr:postcode":20007,"addr:housenumber":1855,"addr:street":"Wisconsin Ave NW","shop":"supermarket"},"geometry":{"type":"Point","coordinates":[-77.06728567734594,38.916126825002856]}
    },
    {
        "type":"Feature","properties":{"name":"Giant Food","addr:city":"Alexandria","addr:state":"VA","addr:postcode":22315,"addr:housenumber":5870,"addr:street":"Kingstowne Blvd","shop":"supermarket"},"geometry":{"type":"Point","coordinates":[-77.13701116835888,38.773028732976634]}
    },
    {
        "type":"Feature","properties":{"name":"Giant Food","addr:city":"McLean","addr:state":"VA","addr:postcode":22101,"addr:housenumber":1454,"addr:street":"Chain Bridge Rd","shop":"supermarket"},"geometry":{"type":"Point","coordinates":[-77.18015217879487,38.9327856784278]}
    },
    {
        "type":"Feature","properties":{"name":"Giant Food","addr:city":"Bethesda","addr:state":"MD","addr:postcode":20814,"addr:housenumber":10400,"addr:street":"Old Georgetown Rd","shop":"supermarket"},"geometry":{"type":"Point","coordinates":[-77.12762436032226,39.02625021281887]}
    },
    {
        "type":"Feature","properties":{"name":"Giant Food","addr:city":"Kensington","addr:state":"MD","addr:postcode":20895,"addr:housenumber":10541,"addr:street":"Connecticut Ave","shop":"supermarket"},"geometry":{"type":"Point","coordinates":[-77.07532709369477,39.027989715461324]}
    },
    {
        "type":"Feature","properties":{"name":"Giant Food","addr:city":"Catonsville","addr:state":"MD","addr:postcode":21228,"addr:housenumber":6223,"addr:street":"Baltimore National Pike","shop":"supermarket"},"geometry":{"type":"Point","coordinates":[-76.75292118897306,39.28167072437783]}
    },
    {
        "type":"Feature","properties":{"name":"Save A Lot","addr:city":"Philadelphia","addr:state":"PA","addr:postcode":19143,"addr:housenumber":5800,"addr:street":"Woodland Ave","shop":"supermarket"},"geometry":{"type":"Point","coordinates":[-75.22466687255253,39.93189896383909]}
    },
    {
        "type":"Feature","properties":{"name":"Save A Lot","addr:city":"Philadelphia","addr:state":"PA","addr:postcode":19124,"addr:housenumber":390129,"addr:street":"M St","shop":"supermarket"},"geometry":{"type":"Point","coordinates":[-75.1003675891775,40.00623087029519]}
    },
    {
        "type":"Feature","properties":{"name":"Save A Lot","addr:city":"Philadelphia","addr:state":"PA","addr:postcode":19139,"addr:housenumber":5601,"addr:street":"Vine St","shop":"supermarket"},"geometry":{"type":"Point","coordinates":[-75.2330673935287,39.96661886234852]}
    },
    {
        "type":"Feature","properties":{"name":"Save A Lot","addr:city":"Philadelphia","addr:state":"PA","addr:postcode":19144,"addr:housenumber":5834,"addr:street":"Pulaski St","shop":"supermarket"},"geometry":{"type":"Point","coordinates":[-75.18223199992059,40.031338604433145]}
    },
    {
        "type":"Feature","properties":{"name":"Morton Williams","addr:city":"New York","addr:state":"NY","addr:postcode":10021,"addr:housenumber":1331,"addr:street":"1st Ave","shop":"supermarket"},"geometry":{"type":"Point","coordinates":[-73.95652059025588,40.76739742750835]}
    },
    {
        "type":"Feature","properties":{"name":"Morton Williams","addr:city":"New York","addr:state":"NY","addr:postcode":10021,"addr:housenumber":130,"addr:street":"Bleecker St","shop":"supermarket"},"geometry":{"type":"Point","coordinates":[-73.99878353940628,40.727782117597876]}
    },
    {
        "type":"Feature","properties":{"name":"Morton Williams","addr:city":"New York","addr:state":"NY","addr:postcode":10019,"addr:housenumber":917,"addr:street":"9th Ave","shop":"supermarket"},"geometry":{"type":"Point","coordinates":[-73.9852514503328,40.76907198594121]}
    },
    {
        "type":"Feature","properties":{"name":"Morton Williams","addr:city":"New York","addr:state":"NY","addr:postcode":10019,"addr:housenumber":140,"addr:street":"W 57th St","shop":"supermarket"},"geometry":{"type":"Point","coordinates":[-73.97891557209549,40.76474398582561]}
    },
    {
        "type":"Feature","properties":{"name":"Morton Williams","addr:city":"New York","addr:state":"NY","addr:postcode":10010,"addr:housenumber":278,"addr:street":"Park Ave S","shop":"supermarket"},"geometry":{"type":"Point","coordinates":[-73.98725382042174,40.7394124022261]}
    },
    {
        "type":"Feature","properties":{"name":"Morton Williams","addr:city":"New York","addr:state":"NY","addr:postcode":10027,"addr:housenumber":2941,"addr:street":"Broadway","shop":"supermarket"},"geometry":{"type":"Point","coordinates":[-73.96452198172214,40.80762728354186]}
    },
    {
        "type":"Feature","properties":{"name":"Woodman's","addr:city":"Beloit","addr:state":"WI","addr:postcode":53511,"addr:housenumber":1877,"addr:street":"S Madison Rd","shop":"supermarket"},"geometry":{"type":"Point","coordinates":[-89.07082031715873,42.524654324214026]}
    },
    {
        "type":"Feature","properties":{"name":"Woodman's","addr:city":"Janesville","addr:state":"WI","addr:postcode":53545,"addr:housenumber":2819,"addr:street":"N Lexington Dr","shop":"supermarket"},"geometry":{"type":"Point","coordinates":[-88.99612018890387,42.716362380284984]}
    },
    {
        "type":"Feature","properties":{"name":"Woodman's","addr:city":"Madison","addr:state":"WI","addr:postcode":53719,"addr:housenumber":725,"addr:street":"S Gammon Rd","shop":"supermarket"},"geometry":{"type":"Point","coordinates":[-89.50078962810372,43.048714928965495]}
    },
    {
        "type":"Feature","properties":{"name":"Woodman's","addr:city":"Waukesha","addr:state":"WI","addr:postcode":53186,"addr:housenumber":1600,"addr:street":"E Main St","shop":"supermarket"},"geometry":{"type":"Point","coordinates":[-88.20449515221134,43.02215545859613]}
    },
    {
        "type":"Feature","properties":{"name":"Woodman's","addr:city":"Sun Prarie","addr:state":"WI","addr:postcode":53590,"addr:housenumber":1099,"addr:street":"S Grand Ave","shop":"supermarket"},"geometry":{"type":"Point","coordinates":[-89.26692468225323,43.16454600904527]}
    },
    {
        "type":"Feature","properties":{"name":"Woodman's","addr:city":"Kenosha","addr:state":"WI","addr:postcode":53142,"addr:housenumber":7145,"addr:street":"120th Ave","shop":"supermarket"},"geometry":{"type":"Point","coordinates":[-87.94788098225325,42.570320037040474]}
    },
    {
        "type":"Feature","properties":{"name":"Woodman's","addr:city":"Madison","addr:state":"WI","addr:postcode":53714,"addr:housenumber":3817,"addr:street":"Milwaukee","shop":"supermarket"},"geometry":{"type":"Point","coordinates":[-89.31895883644853,43.096803413584745]}
    },
    {
        "type":"Feature","properties":{"name":"Woodman's","addr:city":"Oak Creek","addr:state":"WI","addr:postcode":53154,"addr:housenumber":8131,"addr:street":"S Howell Ave","shop":"supermarket"},"geometry":{"type":"Point","coordinates":[-87.9153881984874,42.89699670552535]}
    },
    {
        "type":"Feature","properties":{"name":"Woodman's","addr:city":"Appleton","addr:state":"WI","addr:postcode":54914,"addr:housenumber":595,"addr:street":"N Westhill Blvd","shop":"supermarket"},"geometry":{"type":"Point","coordinates":[-88.46351336559476,44.26747885901466]}
    },
    {
        "type":"Feature","properties":{"name":"Woodman's","addr:city":"Green Bay","addr:state":"WI","addr:postcode":54303,"addr:housenumber":2400,"addr:street":"Duck Creek Pkwy","shop":"supermarket"},"geometry":{"type":"Point","coordinates":[-88.07711730813205,44.54348363714514]}
    },
    {
        "type":"Feature","properties":{"name":"Woodman's","addr:city":"Altoona","addr:state":"WI","addr:postcode":54720,"addr:housenumber":2855,"addr:street":"Woodman Dr","shop":"supermarket"},"geometry":{"type":"Point","coordinates":[-91.45734877158701,44.81581779278751]}
    },
    {
        "type":"Feature","properties":{"name":"Super Saver","addr:city":"Columbus","addr:state":"NE","addr:postcode":68601,"addr:housenumber":3318,"addr:street":"23rd St","shop":"supermarket"},"geometry":{"type":"Point","coordinates":[-97.36904816379136,41.43946744130641]}
    },
    {
        "type":"Feature","properties":{"name":"Super Saver","addr:city":"Lincoln","addr:state":"NE","addr:postcode":68504,"addr:housenumber":233,"addr:street":"N 48th St","shop":"supermarket"},"geometry":{"type":"Point","coordinates":[-96.65521231139573,40.814834426865204]}
    },
    {
        "type":"Feature","properties":{"name":"Super Saver","addr:city":"Lincoln","addr:state":"NE","addr:postcode":68516,"addr:housenumber":5440,"addr:street":"S 56th St","shop":"supermarket"},"geometry":{"type":"Point","coordinates":[-96.63993442988514,40.75793715896269]}
    },
    {
        "type":"Feature","properties":{"name":"Super Saver","addr:city":"Lincoln","addr:state":"NE","addr:postcode":68512,"addr:housenumber":2525,"addr:street":"Pine Lake Rd","shop":"supermarket"},"geometry":{"type":"Point","coordinates":[-96.68507190313609,40.73832863087431]}
    },
    {
        "type":"Feature","properties":{"name":"Super Saver","addr:city":"Lincoln","addr:state":"NE","addr:postcode":68521,"addr:housenumber":840,"addr:street":"Fallbrook Blvd","shop":"supermarket"},"geometry":{"type":"Point","coordinates":[-96.7349843406625,40.877923829522665]}
    },
    {
        "type":"Feature","properties":{"name":"Super Saver","addr:city":"Columbus","addr:state":"NE","addr:postcode":68601,"addr:housenumber":3318,"addr:street":"23rd St","shop":"supermarket"},"geometry":{"type":"Point","coordinates":[-97.36904344415859,41.43963358328092]}
    },
    {
        "type":"Feature","properties":{"name":"Save A Lot","addr:city":"Garfield Heights","addr:state":"OH","addr:postcode":44125,"addr:housenumber":12782,"addr:street":"Rockside Rd","shop":"supermarket"},"geometry":{"type":"Point","coordinates":[-81.5961348784979,41.399636604989844]}
    },
    {
        "type":"Feature","properties":{"name":"Larrys Foodland","addr:city":"Livonia","addr:state":"MI","addr:postcode":48150,"addr:housenumber":33151,"addr:street":"Plymouth RD","shop":"supermarket"},"geometry":{"type":"Point","coordinates":[-83.37020089269394,42.36709532147339]}
    },
    {
        "type":"Feature","properties":{"name":"Cub","addr:city":"Bloomington","addr:state":"MN","addr:postcode":55420,"addr:housenumber":8421,"addr:street":"Lyndale Ave S","shop":"supermarket"},"geometry":{"type":"Point","coordinates":[-93.28527635070685,44.850837351998415]}
    },
    {
        "type":"Feature","properties":{"name":"Cub","addr:city":"Chanhassen","addr:state":"MN","addr:postcode":55317,"addr:housenumber":7900,"addr:street":"Market Blvd","shop":"supermarket"},"geometry":{"type":"Point","coordinates":[-93.53912442503311,44.860192454726146]}
    },
    {
        "type":"Feature","properties":{"name":"Cub","addr:city":"Blaine","addr:state":"MN","addr:postcode":55434,"addr:housenumber":12595,"addr:street":"Central Ave NE","shop":"supermarket"},"geometry":{"type":"Point","coordinates":[-93.2322028382776,45.200070774385075]}
    },
    {
        "type":"Feature","properties":{"name":"Cub","addr:city":"Maple Grove","addr:state":"MN","addr:postcode":55369,"addr:housenumber":8150,"addr:street":"Wedgewood Ln","shop":"supermarket"},"geometry":{"type":"Point","coordinates":[-93.44767869772686,45.102673629004585]}
    },
    {
        "type":"Feature","properties":{"name":"Cub","addr:city":"Shakopee","addr:state":"MN","addr:postcode":55379,"addr:housenumber":1198,"addr:street":"Vierling Dr E","shop":"supermarket"},"geometry":{"type":"Point","coordinates":[-93.50931364608672,44.779897863569026]}
    },
    {
        "type":"Feature","properties":{"name":"Cub","addr:city":"Burnsville","addr:state":"MN","addr:postcode":55337,"addr:housenumber":300,"addr:street":"E Travelers Trail","shop":"supermarket"},"geometry":{"type":"Point","coordinates":[-93.27513925006075,44.77714293523509]}
    },
    {
        "type":"Feature","properties":{"name":"Cub","addr:city":"Eagan","addr:state":"MN","addr:postcode":55123,"addr:housenumber":1276,"addr:street":"Town Centre Dr","shop":"supermarket"},"geometry":{"type":"Point","coordinates":[-93.16050287372789,44.831697658777635]}
    },
    {
        "type":"Feature","properties":{"name":"Cub","addr:city":"Oakdale","addr:state":"MN","addr:postcode":55128,"addr:housenumber":7191,"addr:street":"10th St N","shop":"supermarket"},"geometry":{"type":"Point","coordinates":[-92.96077027278893,44.96166057834021]}
    },
    {
        "type":"Feature","properties":{"name":"Cub","addr:city":"Eagan","addr:state":"MN","addr:postcode":55122,"addr:housenumber":1940,"addr:street":"Cliff Lake Rd","shop":"supermarket"},"geometry":{"type":"Point","coordinates":[-93.20356677898852,44.795211076458]}
    },
    {
        "type":"Feature","properties":{"name":"Cub","addr:city":"Crystal","addr:state":"MN","addr:postcode":55422,"addr:housenumber":5301,"addr:street":"36th Ave N","shop":"supermarket"},"geometry":{"type":"Point","coordinates":[-93.34676157743084,45.0191743031286]}
    },
    {
        "type":"Feature","properties":{"name":"Cub","addr:city":"Minneapolis","addr:state":"MN","addr:postcode":55408,"addr:housenumber":1104,"addr:street":"Lagoon Ave","shop":"supermarket"},"geometry":{"type":"Point","coordinates":[-93.29381500587988,44.949601063905135]}
    },
    {
        "type":"Feature","properties":{"name":"Cub","addr:city":"Minneapolis","addr:state":"MN","addr:postcode":55406,"addr:housenumber":4601,"addr:street":"Snelling Ave S","shop":"supermarket"},"geometry":{"type":"Point","coordinates":[-93.21587952604173,44.91887193236614]}
    },
    {
        "type":"Feature","properties":{"name":"Cub","addr:city":"St Paul","addr:state":"MN","addr:postcode":55104,"addr:housenumber":1440,"addr:street":"University Ave W","shop":"supermarket"},"geometry":{"type":"Point","coordinates":[-93.16084207075797,44.95280751169871]}
    },
    {
        "type":"Feature","properties":{"name":"Cub","addr:city":"Fridley","addr:state":"MN","addr:postcode":55432,"addr:housenumber":250,"addr:street":"57th Ave NE","shop":"supermarket"},"geometry":{"type":"Point","coordinates":[-93.2667619387373,45.07005499171201]}
    },
    {
        "type":"Feature","properties":{"name":"Cub","addr:city":"Rosemount","addr:state":"MN","addr:postcode":55068,"addr:housenumber":3784,"addr:street":"150th St W","shop":"supermarket"},"geometry":{"type":"Point","coordinates":[-93.14236652451018,44.73012568508177]}
    },
    {
        "type":"Feature","properties":{"name":"Cub","addr:city":"Lakeville","addr:state":"MN","addr:postcode":55044,"addr:housenumber":20250,"addr:street":"Heritage Dr","shop":"supermarket"},"geometry":{"type":"Point","coordinates":[-93.25155922420527,44.65889361439736]}
    },
    {
        "type":"Feature","properties":{"name":"Cub","addr:city":"Lakeville","addr:state":"MN","addr:postcode":55044,"addr:housenumber":17756,"addr:street":"Kenwood Trl","shop":"supermarket"},"geometry":{"type":"Point","coordinates":[-93.28130908531473,44.69238732426923]}
    },
    {
        "type":"Feature","properties":{"name":"Cub","addr:city":"Lakeville","addr:state":"MN","addr:postcode":55044,"addr:housenumber":7435,"addr:street":"179th St W","shop":"supermarket"},"geometry":{"type":"Point","coordinates":[-93.21487760481556,44.692626306416955]}
    },
    {
        "type":"Feature","properties":{"name":"Cub","addr:city":"Apple Valley","addr:state":"MN","addr:postcode":55124,"addr:housenumber":15350,"addr:street":"Cedar Ave","shop":"supermarket"},"geometry":{"type":"Point","coordinates":[-93.21598051647712,44.72639390578182]}
    },
    {
        "type":"Feature","properties":{"name":"Cub","addr:city":"Savage","addr:state":"MN","addr:postcode":55378,"addr:housenumber":14075,"addr:street":"State Hwy 13","shop":"supermarket"},"geometry":{"type":"Point","coordinates":[-93.37757331192978,44.748620400810296]}
    },
    {
        "type":"Feature","properties":{"name":"Cub","addr:city":"Burnsville","addr:state":"MN","addr:postcode":55337,"addr:housenumber":1750,"addr:street":"County Rd 42","shop":"supermarket"},"geometry":{"type":"Point","coordinates":[-93.30063891033203,44.747800433547965]}
    },
    {
        "type":"Feature","properties":{"name":"Cub","addr:city":"Shorewood","addr:state":"MN","addr:postcode":55331,"addr:housenumber":23800,"addr:street":"MN-7","shop":"supermarket"},"geometry":{"type":"Point","coordinates":[-93.5812302305216,44.893186582487786]}
    },
    {
        "type":"Feature","properties":{"name":"Cub","addr:city":"Inver Grove Heights","addr:state":"MN","addr:postcode":55076,"addr:housenumber":7850,"addr:street":"Cahill Ave","shop":"supermarket"},"geometry":{"type":"Point","coordinates":[-93.04113066450795,44.83536335204683]}
    },
    {
        "type":"Feature","properties":{"name":"Cub","addr:city":"Cottage Grove","addr:state":"MN","addr:postcode":55016,"addr:housenumber":8690,"addr:street":"E Point Douglas Rd","shop":"supermarket"},"geometry":{"type":"Point","coordinates":[-92.92993326244665,44.81828613047236]}
    },
    {
        "type":"Feature","properties":{"name":"Cub","addr:city":"Hastings","addr:state":"MN","addr:postcode":55033,"addr:housenumber":1729,"addr:street":"Market Blvd","shop":"supermarket"},"geometry":{"type":"Point","coordinates":[-92.89195586285744,44.73686867627521]}
    },
    {
        "type":"Feature","properties":{"name":"Cub","addr:city":"Stillwater","addr:state":"MN","addr:postcode":55082,"addr:housenumber":1801,"addr:street":"Market Dr","shop":"supermarket"},"geometry":{"type":"Point","coordinates":[-92.83836038303771,45.039194709982006]}
    },
    {
        "type":"Feature","properties":{"name":"Cub","addr:city":"Plymouth","addr:state":"MN","addr:postcode":55447,"addr:housenumber":3550,"addr:street":"Vicksburg Ln N","shop":"supermarket"},"geometry":{"type":"Point","coordinates":[-93.47906645895888,45.02118718175947]}
    },
    {
        "type":"Feature","properties":{"name":"Cub","addr:city":"Plymouth","addr:state":"MN","addr:postcode":55442,"addr:housenumber":4445,"addr:street":"Nathan Ln N","shop":"supermarket"},"geometry":{"type":"Point","coordinates":[-93.40950743873333,45.03549830430029]}
    },
    {
        "type":"Feature","properties":{"name":"Cub","addr:city":"New Brighton","addr:state":"MN","addr:postcode":55112,"addr:housenumber":2600,"addr:street":"Rice Creek Rd","shop":"supermarket"},"geometry":{"type":"Point","coordinates":[-93.22061829108448,45.08319889150937]}
    },
    {
        "type":"Feature","properties":{"name":"Cub","addr:city":"Brooklyn Park","addr:state":"MN","addr:postcode":55445,"addr:housenumber":9655,"addr:street":"Colorado Ln N","shop":"supermarket"},"geometry":{"type":"Point","coordinates":[-93.36055030573513,45.131343282175685]}
    },
    {
        "type":"Feature","properties":{"name":"Cub","addr:city":"Blaine","addr:state":"MN","addr:postcode":55434,"addr:housenumber":585,"addr:street":"Northtown Dr NE","shop":"supermarket"},"geometry":{"type":"Point","coordinates":[-93.22061880624311,45.08319441723359]}
    },
    {
        "type":"Feature","properties":{"name":"Cub","addr:city":"Blaine","addr:state":"MN","addr:postcode":55449,"addr:housenumber":4205,"addr:street":"Pheasant Ridge Dr NE","shop":"supermarket"},"geometry":{"type":"Point","coordinates":[-93.16215216396002,45.16309191190792]}
    },
    {
        "type":"Feature","properties":{"name":"Cub","addr:city":"Blaine","addr:state":"MN","addr:postcode":55434,"addr:housenumber":10881,"addr:street":"University Ave NE","shop":"supermarket"},"geometry":{"type":"Point","coordinates":[-93.26441965158396,45.16716168969925]}
    },
    {
        "type":"Feature","properties":{"name":"Cub","addr:city":"Blaine","addr:state":"MN","addr:postcode":55434,"addr:housenumber":12595,"addr:street":"Central Ave NE","shop":"supermarket"},"geometry":{"type":"Point","coordinates":[-93.23219918365376,45.20007569307207]}
    },
    {
        "type":"Feature","properties":{"name":"Cub","addr:city":"Coon Rapids","addr:state":"MN","addr:postcode":55433,"addr:housenumber":2050,"addr:street":"Northdale Blvd NW","shop":"supermarket"},"geometry":{"type":"Point","coordinates":[-93.31851325134046,45.18000160467226]}
    },
    {
        "type":"Feature","properties":{"name":"Cub","addr:city":"Coon Rapids","addr:state":"MN","addr:postcode":55448,"addr:housenumber":12900,"addr:street":"Riverdale Dr NW","shop":"supermarket"},"geometry":{"type":"Point","coordinates":[-93.36207364869452,45.20559772374151]}
    },
    {
        "type":"Feature","properties":{"name":"Cub","addr:city":"Arden Hills","addr:state":"MN","addr:postcode":55126,"addr:housenumber":3717,"addr:street":"Lexington Ave N","shop":"supermarket"},"geometry":{"type":"Point","coordinates":[-93.14859224591427,45.05307643994745]}
    },
    {
        "type":"Feature","properties":{"name":"Cub","addr:city":"White Bear Lake","addr:state":"MN","addr:postcode":55110,"addr:housenumber":1920,"addr:street":"Buerkle Rd","shop":"supermarket"},"geometry":{"type":"Point","coordinates":[-93.02092378341406,45.03884864843589]}
    },
    {
        "type":"Feature","properties":{"name":"Cub","addr:city":"Maplewood","addr:state":"MN","addr:postcode":55109,"addr:housenumber":2390,"addr:street":"White Bear Ave","shop":"supermarket"},"geometry":{"type":"Point","coordinates":[-93.01697576125731,45.014334495190596]}
    },
    {
        "type":"Feature","properties":{"name":"Cub","addr:city":"St Paul","addr:state":"MN","addr:postcode":55106,"addr:housenumber":1177,"addr:street":"Clarence St","shop":"supermarket"},"geometry":{"type":"Point","coordinates":[-93.04480180568387,44.976459376017125]}
    },
    {
        "type":"Feature","properties":{"name":"Cub","addr:city":"Maplewood","addr:state":"MN","addr:postcode":55117,"addr:housenumber":100,"addr:street":"W Country B Rd","shop":"supermarket"},"geometry":{"type":"Point","coordinates":[-93.10370226798011,45.005200017134136]}
    },
    {
        "type":"Feature","properties":{"name":"Cub","addr:city":"St Paul","addr:state":"MN","addr:postcode":55118,"addr:housenumber":2001,"addr:street":"S Robert St","shop":"supermarket"},"geometry":{"type":"Point","coordinates":[-93.08318431777586,44.88556212167814]}
    },
    {
        "type":"Feature","properties":{"name":"Cub","addr:city":"Rochester","addr:state":"MN","addr:postcode":55904,"addr:housenumber":1021,"addr:street":"15th Ave SE","shop":"supermarket"},"geometry":{"type":"Point","coordinates":[-92.44481102779854,44.00977157541185]}
    },
    {
        "type":"Feature","properties":{"name":"Cub","addr:city":"St Anthony","addr:state":"MN","addr:postcode":55421,"addr:housenumber":3930,"addr:street":"Silver Lake Rd NE","shop":"supermarket"},"geometry":{"type":"Point","coordinates":[-93.22179643014366,45.04010036096875]}
    },
    {
        "type":"Feature","properties":{"name":"Cub","addr:city":"St Louis Park","addr:state":"MN","addr:postcode":55416,"addr:housenumber":5370,"addr:street":"W 16th St","shop":"supermarket"},"geometry":{"type":"Point","coordinates":[-93.34895649324658,44.968082194166044]}
    },
    {
        "type":"Feature","properties":{"name":"Cub","addr:city":"Monticello","addr:state":"MN","addr:postcode":55362,"addr:housenumber":216,"addr:street":"7th St W","shop":"supermarket"},"geometry":{"type":"Point","coordinates":[-93.80022048940722,45.3002733454612]}
    },
    {
        "type":"Feature","properties":{"name":"Cub","addr:city":"Northfield","addr:state":"MN","addr:postcode":55057,"addr:housenumber":2423,"addr:street":"Hwy 3 S","shop":"supermarket"},"geometry":{"type":"Point","coordinates":[-93.18758990746474,44.432585331446575]}
    },
    {
        "type":"Feature","properties":{"name":"Cub","addr:city":"Forest Lake","addr:state":"MN","addr:postcode":55025,"addr:housenumber":2013,"addr:street":"W Broadway Ave","shop":"supermarket"},"geometry":{"type":"Point","coordinates":[-93.01083375824487,45.28307320780131]}
    },
    {
        "type":"Feature","properties":{"name":"Cub","addr:city":"Mankato","addr:state":"MN","addr:postcode":56001,"addr:housenumber":1200,"addr:street":"S Riverfront Dr","shop":"supermarket"},"geometry":{"type":"Point","coordinates":[-94.01724100499406,44.16063899522717]}
    },
    {
        "type":"Feature","properties":{"name":"Cub","addr:city":"Cambridge","addr:state":"MN","addr:postcode":55008,"addr:housenumber":100,"addr:street":"Opportunity Blvd","shop":"supermarket"},"geometry":{"type":"Point","coordinates":[-93.20256722291596,45.57413022351392]}
    },
    {
        "type":"Feature","properties":{"name":"Cub","addr:city":"Champlin","addr:state":"MN","addr:postcode":55316,"addr:housenumber":8600,"addr:street":"114th Ave N","shop":"supermarket"},"geometry":{"type":"Point","coordinates":[-93.38919171458741,45.160574094172816]}
    },
    {
        "type":"Feature","properties":{"name":"Cub","addr:city":"Brooklyn Park","addr:state":"MN","addr:postcode":55428,"addr:housenumber":7555,"addr:street":"W Broadway Ave","shop":"supermarket"},"geometry":{"type":"Point","coordinates":[-93.37947781151055,45.09183746151958]}
    },
    {
        "type":"Feature","properties":{"name":"Westside Market","addr:city":"New York","addr:state":"NY","addr:postcode":10003,"addr:housenumber":84,"addr:street":"3rd Ave","shop":"supermarket"},"geometry":{"type":"Point","coordinates":[-73.9884794573895,40.731830109854116]}
    },
    {
        "type":"Feature","properties":{"name":"Westside Market","addr:city":"New York","addr:state":"NY","addr:postcode":10025,"addr:housenumber":2589,"addr:street":"Broadway","shop":"supermarket"},"geometry":{"type":"Point","coordinates":[-73.97125908001816,40.79587824652041]}
    },
    {
        "type":"Feature","properties":{"name":"Westside Market","addr:city":"New York","addr:state":"NY","addr:postcode":10025,"addr:housenumber":2589,"addr:street":"Broadway","shop":"supermarket"},"geometry":{"type":"Point","coordinates":[-73.97125908001816,40.79587824652041]}
    },
    {
        "type":"Feature","properties":{"name":"Westside Market","addr:city":"New York","addr:state":"NY","addr:postcode":10025,"addr:housenumber":2840,"addr:street":"Broadway","shop":"supermarket"},"geometry":{"type":"Point","coordinates":[-73.96624823543344,40.80428537852313]}
    }
    ]}